,event_id,source_origin_time,source_latitude_deg,source_longitude_deg,source_type,source_depth_km,preferred_source_magnitude,preferred_source_magnitude_type,preferred_source_magnitude_uncertainty,source_depth_uncertainty_km,source_horizontal_uncertainty_km,station_network_code,station_channel_code,station_code,station_location_code,station_latitude_deg,station_longitude_deg,station_elevation_m,trace_name,trace_sampling_rate_hz,trace_start_time,trace_S_arrival_sample,trace_P_arrival_sample,trace_S_arrival_uncertainty_s,trace_P_arrival_uncertainty_s,trace_P_polarity,trace_S_onset,trace_P_onset,trace_snr_db,year,source_type_pnsn_label,source_local_magnitude,source_local_magnitude_uncertainty,source_duration_magnitude,source_duration_magnitude_uncertainty,source_hand_magnitude
128,uw61036542,2015-07-02T10:26:11.130000Z,47.765,-122.43,earthquake,27.22,1.51,ml,0.229,0.93,0.54,TA,BH,D03D,--,47.5347,-123.089,262.0,"bucket1$128,:3,:15001",100,2015-07-02T10:25:21.130000Z,6555.0,5947.0,0.06,0.03,negative,impulsive,impulsive,9.085|9.368|10.238,2015.0,eq,1.51,0.229,1.24,0.19,
129,uw60606277,2013-10-06T02:46:14.840000Z,42.113,-122.703,earthquake,16.519,1.17,ml,0.132,0.8,0.59,TA,BH,M04C,--,41.7826,-121.839,1391.0,"bucket1$129,:3,:15001",100,2013-10-06T02:45:24.840000Z,7388.0,6378.0,0.15,0.15,undecidable,emergent,emergent,3.4|1.719|-6.665,2013.0,eq,1.17,0.132,1.11,0.064,
130,uw61815221,2022-02-06T15:00:20.480000Z,46.197,-122.182,earthquake,3.02,0.81,ml,0.133,0.44,0.29,CC,BH,REM,--,46.2002,-122.186,1905.4,"bucket1$130,:3,:15001",100,2022-02-06T14:59:30.480000Z,5178.0,5100.0,0.15,0.03,positive,emergent,impulsive,12.064|16.387|16.317,2022.0,eq,0.81,0.133447167587,1.77,0.161403898681,
131,uw60920187,2014-11-19T13:07:23.810000Z,49.534,-116.707,earthquake,-0.73,2.87,ml,0.026,10.92,7.62,UW,BH,OMAK,--,48.3584,-119.333,687.1,"bucket1$131,:3,:15001",100,2014-11-19T13:06:33.810000Z,11209.0,8374.0,0.15,0.06,positive,emergent,impulsive,10.878|14.198|8.564,2014.0,eq,2.87,0.026,3.08,0.238,
132,uw61436666,2018-10-11T06:35:50.750000Z,48.234,-121.663,earthquake,8.59,1.4,ml,0.091,1.36,0.69,UW,BH,GNW,--,47.5641,-122.825,220.0,"bucket1$132,:3,:15001",100,2018-10-11T06:35:00.750000Z,8196.0,6816.0,0.06,0.3,undecidable,impulsive,emergent,-2.276|-4.924|-5.569,2018.0,eq,1.4,0.091,0.87,0.16,
133,uw61837172,2022-05-30T13:22:55.400000Z,46.851,-121.76,earthquake,1.64,0.26,ml,0.212,0.72,0.25,UW,HH,RCM,--,46.8356,-121.733,3085.0,"bucket1$133,:3,:15001",100,2022-05-30T13:22:05.400000Z,5145.0,5072.0,0.06,0.03,positive,impulsive,impulsive,13.746|8.736|12.292,2022.0,eq,0.26,0.211790170348,-0.17,0.192633163723,
134,uw61734671,2021-05-22T23:32:45.010000Z,47.598,-121.487,earthquake,93.41,1.32,ml,0.156,0.76,0.59,UW,HH,GNW,--,47.5641,-122.825,220.0,"bucket1$134,:3,:15001",100,2021-05-22T23:31:55.010000Z,8337.0,6853.0,0.15,0.15,undecidable,emergent,emergent,7.293|10.244|1.331,2021.0,eq,1.32,0.155906947167,1.64,0.00939480482542,
135,uw61500843,2019-09-30T07:27:31.110000Z,46.85,-121.757,earthquake,2.35,0.61,ml,0.128,0.66,0.31,CC,BH,RUSH,--,46.9031,-121.944,1235.0,"bucket1$135,:3,:15001",100,2019-09-30T07:26:41.110000Z,5513.0,5287.0,0.3,0.03,positive,emergent,impulsive,3.399|0.252|2.75,2019.0,eq,0.61,0.127539048924,0.03,0.172315451049,
136,uw61607516,2020-04-16T00:13:26.700000Z,46.68,-121.909,earthquake,5.62,0.29,md,0.224,1.54,0.69,CC,BH,PR05,--,46.8417,-121.949,1553.0,"bucket1$136,:3,:15001",100,2020-04-16T00:12:36.700000Z,5612.0,5342.0,0.06,0.06,negative,impulsive,impulsive,-3.258|-2.579|0.938,2020.0,eq,,,0.29,0.223645765052,
137,uw61787677,2021-11-11T13:57:32.770000Z,45.319,-121.68,earthquake,5.67,0.85,ml,0.172,0.49,0.61,UW,HH,HOOD,--,45.3223,-121.651,1512.0,"bucket1$137,:3,:15001",100,2021-11-11T13:56:42.770000Z,5269.0,5152.0,0.06,0.3,undecidable,impulsive,emergent,6.457|7.877|9.383,2021.0,eq,0.85,0.171514150338,0.59,0.16889399607,
138,uw61699817,2021-01-19T09:27:02.500000Z,45.333,-121.691,earthquake,5.18,0.89,ml,0.092,0.38,0.42,CC,BH,HIYU,--,45.4352,-121.807,1418.0,"bucket1$138,:3,:15001",100,2021-01-19T09:26:12.500000Z,5566.0,5321.0,0.06,0.06,positive,impulsive,impulsive,4.865|5.783|4.477,2021.0,eq,0.89,0.0917309745984,0.64,0.0513469545386,
139,uw61681831,2020-09-10T18:38:14.180000Z,47.864,-122.038,earthquake,27.13,1.7,ml,0.261,0.55,0.34,CC,BH,CARB,--,46.9883,-122.005,872.5,"bucket1$139,:3,:15001",100,2020-09-10T18:37:24.180000Z,7770.0,6558.0,0.06,0.06,positive,impulsive,impulsive,5.2|8.001|10.591,2020.0,eq,1.7,0.260842009968,1.62,0.192903431858,
140,uw10761158,2009-03-13T20:48:59.320000Z,46.404,-119.28,earthquake,1.296,1.51,ml,0.075,0.31,0.045,HW,BH,DDRF,--,46.4911,-119.06,233.0,"bucket1$140,:3,:15001",100,2009-03-13T20:48:09.320000Z,5693.0,5381.0,0.05,0.08,undecidable,,,22.121|14.042|18.364,2009.0,eq,1.51,0.075,1.5,0.03,
141,uw61086452,2015-11-02T23:12:25.720000Z,48.451,-123.54,earthquake,8.179,1.56,ml,0.121,0.75,0.28,CN,HH,VGZ,--,48.4131,-123.325,67.0,"bucket1$141,:3,:15001",100,2015-11-02T23:11:35.720000Z,5559.0,5310.0,0.03,0.03,positive,impulsive,impulsive,22.757|13.461|16.932,2015.0,eq,1.56,0.121,1.1,0.213,
142,uw60755872,2014-05-05T16:36:24.230000Z,47.691,-120.166,earthquake,5.989,0.99,ml,0.036,1.55,0.54,UW,BH,LTY,--,47.2545,-120.666,807.0,"bucket1$142,:3,:15001",100,2014-05-05T16:35:34.230000Z,6803.0,6057.0,0.06,0.15,undecidable,impulsive,emergent,0.616|4.1|2.102,2014.0,eq,0.99,0.036,0.91,0.259,
143,uw61663917,2020-08-26T12:01:08.730000Z,46.352,-122.234,earthquake,4.84,1.4,ml,0.249568560673,0.66,0.37,CC,BH,SWF2,--,46.1783,-122.216,1538.0,"bucket1$143,:3,:15001",100,2020-08-26T12:00:18.730000Z,5649.0,5383.0,0.15,0.03,negative,emergent,impulsive,35.614|38.333|32.329,2020.0,eq,1.4,0.249568560673,1.12,0.129775468711,
144,uw61362396,2018-01-03T09:01:12.470000Z,46.251,-122.064,earthquake,9.49,0.82,ml,0.251,0.63,0.38,CC,BH,STD,--,46.2375,-122.224,1189.0,"bucket1$144,:3,:15001",100,2018-01-03T09:00:22.470000Z,5535.0,5291.0,0.06,0.03,negative,impulsive,impulsive,19.219|11.892|8.43,2018.0,eq,0.82,0.251,0.9,0.283,
145,uw60441322,2012-08-18T01:59:30.380000Z,46.843,-121.769,earthquake,-0.591,0.63,ml,0.203,2.36,0.34,CC,BH,PANH,--,46.859,-121.643,2086.0,"bucket1$145,:3,:15001",100,2012-08-18T01:58:40.380000Z,5324.0,5162.0,0.06,0.03,positive,impulsive,impulsive,11.209|9.801|2.379,2012.0,eq,0.63,0.203,0.22,0.275,
146,uw61533506,2019-07-05T19:58:36.450000Z,46.868,-121.912,earthquake,9.95,0.88,ml,0.151639087029,0.91,0.71,UW,HH,LON,--,46.7506,-121.81,853.0,"bucket1$146,:3,:15001",100,2019-07-05T19:57:46.450000Z,5553.0,5313.0,0.15,0.03,positive,emergent,impulsive,23.286|21.942|18.116,2019.0,eq,0.88,0.151639087029,0.54,0.482395760098,
147,uw60441447,2012-08-18T17:00:02.830000Z,45.358,-121.698,earthquake,3.153,1.65,ml,0.188,0.55,0.24,UW,BH,BLOW,--,44.6837,-122.186,657.3,"bucket1$147,:3,:15001",100,2012-08-18T16:59:12.830000Z,7512.0,6437.0,0.06,0.06,positive,impulsive,impulsive,18.592|11.517|8.717,2012.0,eq,1.65,0.188,1.8,0.312,
148,uw61863037,2022-08-13T18:10:35.950000Z,43.925,-122.121,earthquake,33.36,0.75,ml,0.08,1.07,0.53,UO,HH,RSBO,--,44.0434,-122.267,1235.0,"bucket1$148,:3,:15001",100,2022-08-13T18:09:45.950000Z,6160.0,5690.0,0.15,0.3,undecidable,emergent,emergent,1.564|7.266|1.388,2022.0,lf,0.75,0.0798190844496,0.84,0.0795762677181,
149,uw61568547,2020-01-24T21:35:33.680000Z,48.542,-125.215,earthquake,9.89,4.5,mh,,31.61,1.73,CN,HH,PTRF,--,48.5442,-124.413,164.0,"bucket1$149,:3,:15001",100,2020-01-24T21:34:43.680000Z,6423.0,5715.0,0.06,0.06,positive,impulsive,impulsive,57.356|58.647|61.341,2020.0,eq,4.62,0.258903117192,4.69,0.150464638016,4.5
150,uw60475377,2012-11-16T19:00:41.750000Z,47.598,-120.275,earthquake,6.296,1.81,ml,0.102,1.38,0.35,UW,BH,LTY,--,47.2545,-120.666,807.0,"bucket1$150,:3,:15001",100,2012-11-16T18:59:51.750000Z,6429.0,5819.0,0.06,0.06,undecidable,impulsive,impulsive,2.901|0.181|-5.698,2012.0,eq,1.81,0.102,1.93,0.131,
151,uw61684731,2020-09-19T01:19:19.150000Z,46.899,-121.959,earthquake,9.84,0.27,ml,0.039,0.49,0.39,CC,BH,RUSH,--,46.9031,-121.944,1235.0,"bucket1$151,:3,:15001",100,2020-09-19T01:18:29.150000Z,5342.0,5187.0,0.06,0.06,positive,impulsive,impulsive,2.864|0.985|5.149,2020.0,eq,0.27,0.0394432708865,-0.19,0.16307544093,
152,uw60622442,2013-11-03T01:24:47.680000Z,47.701,-122.669,earthquake,19.998,1.33,ml,0.231,1.17,0.67,UW,BH,GNW,--,47.5641,-122.825,220.0,"bucket1$152,:3,:15001",100,2013-11-03T01:23:57.680000Z,5753.0,5433.0,0.06,0.15,undecidable,impulsive,emergent,5.251|0.721|-2.641,2013.0,eq,1.33,0.231,0.68,0.167,
153,uw61269147,2017-05-25T04:20:41.260000Z,46.851,-121.742,earthquake,1.21,0.59,ml,0.233,0.5,0.42,UW,BH,LON,--,46.7506,-121.81,853.0,"bucket1$153,:3,:15001",100,2017-05-25T04:19:51.260000Z,5378.0,5210.0,0.06,0.15,undecidable,impulsive,emergent,0.69|0.104|-5.575,2017.0,eq,0.59,0.233,0.09,0.412,
154,uw60108608,2015-04-04T12:07:59.640000Z,46.208,-122.783,earthquake,19.086,0.64,md,0.275,0.78,0.96,TA,BH,F04D,--,46.0829,-123.011,236.0,"bucket1$154,:3,:15001",100,2015-04-04T12:07:09.640000Z,5861.0,5493.0,0.06,0.06,negative,impulsive,impulsive,0.464|3.583|3.104,2015.0,eq,,,0.64,0.275,
155,uw61500838,2019-09-30T20:35:01.190000Z,46.768,-120.831,earthquake,7.83,1.25,md,0.338820031231,0.8,1.32,UW,HH,LTY,--,47.2545,-120.666,807.0,"bucket1$155,:3,:15001",100,2019-09-30T20:34:11.190000Z,6653.0,5903.0,0.15,0.15,undecidable,emergent,emergent,1.088|2.558|-0.283,2019.0,eq,,,1.25,0.338820031231,
156,uw61694587,2020-12-08T02:21:46.800000Z,45.987,-123.592,earthquake,19.8,2.18,ml,0.219,0.74,0.36,UW,HH,FISH2,--,45.9275,-123.499,146.3,"bucket1$156,:3,:15001",100,2020-12-08T02:20:56.800000Z,5618.0,5329.0,0.06,0.03,negative,impulsive,impulsive,23.987|35.282|16.306,2020.0,eq,2.18,0.218700929719,2.38,0.34596439393,
157,uw61846097,2022-06-25T13:28:01.970000Z,47.576,-122.619,earthquake,31.38,1.24,ml,0.237879974333,1.27,0.79,UW,HH,GNW,--,47.5641,-122.825,220.0,"bucket1$157,:3,:15001",100,2022-06-25T13:27:11.970000Z,5878.0,5522.0,0.03,0.03,positive,impulsive,impulsive,13.659|17.082|11.747,2022.0,eq,1.24,0.237879974333,1.04,0.137929690479,
158,uw61561961,2019-11-29T12:51:07.090000Z,46.947,-121.95,earthquake,13.45,0.65,ml,0.0998558110219,0.48,0.32,CC,BH,PR04,--,46.9298,-121.989,908.0,"bucket1$158,:3,:15001",100,2019-11-29T12:50:17.090000Z,5463.0,5245.0,0.15,0.15,undecidable,emergent,emergent,29.733|16.997|14.965,2019.0,eq,0.65,0.0998558110219,0.44,0.175721901121,
159,uw60393776,2012-02-05T17:27:52.460000Z,45.124,-120.95,earthquake,17.518,2.41,ml,0.124,1.14,0.59,UW,BH,HOOD,--,45.3223,-121.651,1512.0,"bucket1$159,:3,:15001",100,2012-02-05T17:27:02.460000Z,6800.0,6034.0,0.03,0.06,negative,impulsive,impulsive,10.856|12.633|10.764,2012.0,eq,2.41,0.124,2.43,0.151,
160,uw61833821,2022-04-24T19:52:00.650000Z,47.921,-122.315,earthquake,11.55,1.52,ml,0.154788740814,0.91,0.31,UW,HH,BHW,--,47.8361,-122.033,217.0,"bucket1$160,:3,:15001",100,2022-04-24T19:51:10.650000Z,5779.0,5427.0,0.03,0.06,undecidable,impulsive,emergent,3.018|0.104|-0.233,2022.0,eq,1.52,0.154788740814,1.52,0.364654788147,
161,uw61818396,2022-02-24T17:26:25.190000Z,47.861,-122.095,earthquake,25.42,2.16,ml,0.199,0.49,0.31,UW,HH,HILL,--,48.3881,-122.447,38.1,"bucket1$161,:3,:15001",100,2022-02-24T17:25:35.190000Z,6920.0,6070.0,0.15,0.06,negative,emergent,impulsive,6.888|7.416|6.894,2022.0,eq,2.16,0.199465664989,2.28,0.454620773741,
162,uw60846122,2014-08-16T13:03:57.250000Z,47.869,-121.659,earthquake,11.553,1.32,ml,0.163,1.33,0.55,TA,BH,B05D,--,48.2641,-122.096,153.0,"bucket1$162,:3,:15001",100,2014-08-16T13:03:07.250000Z,6587.0,5895.0,0.06,0.15,undecidable,impulsive,emergent,2.254|4.071|-1.327,2014.0,eq,1.32,0.163,1.16,0.105,
163,uw61718752,2021-04-29T08:45:19.700000Z,48.6,-122.289,earthquake,11.52,1.21,ml,0.117,1.0,0.56,UW,HH,DONK,--,48.4238,-122.157,892.8,"bucket1$163,:3,:15001",100,2021-04-29T08:44:29.700000Z,5759.0,5364.0,0.15,0.06,negative,emergent,impulsive,16.218|15.33|13.893,2021.0,eq,1.21,0.11738773066,0.95,0.205736170293,
164,uw61066216,2015-08-13T10:07:14.810000Z,45.146,-122.625,earthquake,15.4,1.64,ml,0.084,2.11,0.58,TA,BH,G03D,--,45.2115,-123.264,222.0,"bucket1$164,:3,:15001",100,2015-08-13T10:06:24.810000Z,6589.0,5889.0,0.06,0.03,negative,impulsive,impulsive,0.32|3.844|-2.86,2015.0,eq,1.64,0.084,1.7,0.162,
165,uw61265172,2017-05-11T13:57:45.720000Z,47.592,-122.52,earthquake,11.3,0.3,md,0.079,2.58,0.92,UW,BH,GNW,--,47.5641,-122.825,220.0,"bucket1$165,:3,:15001",100,2017-05-11T13:56:55.720000Z,5746.0,5403.0,0.06,0.06,negative,impulsive,impulsive,6.024|7.346|-0.485,2017.0,eq,,,0.3,0.079,
166,uw10598343,2003-07-18T08:56:29.450000Z,48.0,-122.488,earthquake,26.412,2.2,md,0.05,0.65,0.573,UW,HH,ERW,--,48.4538,-122.626,387.0,"bucket1$166,:3,:15001",100,2003-07-18T08:55:39.450000Z,6551.0,5889.0,0.09,0.06,undecidable,,,16.04|5.538|6.855,2003.0,eq,,,2.2,0.05,
167,uw10723348,2007-07-12T12:34:11.640000Z,47.537,-121.988,earthquake,16.758,1.0,md,0.04,0.36,0.556,UW,HH,ELW,--,47.4941,-121.873,267.0,"bucket1$167,:3,:15001",100,2007-07-12T12:33:21.640000Z,5585.0,5322.0,0.03,0.03,positive,,,10.414|1.09|2.668,2007.0,eq,,,1.0,0.04,
168,uw61869672,2022-09-08T11:44:56.410000Z,47.837,-122.763,earthquake,23.81,1.54,ml,0.15,0.73,0.46,UW,HH,DOSE,--,47.7172,-122.972,53.3,"bucket1$168,:3,:15001",100,2022-09-08T11:44:06.410000Z,5835.0,5457.0,0.06,0.03,positive,impulsive,impulsive,23.027|19.281|16.249,2022.0,eq,1.54,0.150465864905,1.55,0.220211489746,
169,uw61735446,2021-05-24T10:42:37.810000Z,46.857,-121.941,earthquake,12.38,0.83,ml,0.0829829611908,0.42,0.48,CC,BH,PR05,--,46.8417,-121.949,1553.0,"bucket1$169,:3,:15001",100,2021-05-24T10:41:47.810000Z,5408.0,5233.0,0.15,,undecidable,emergent,,10.87|8.811|11.05,2021.0,eq,0.83,0.0829829611908,0.5,0.381880296456,
170,uw61512986,2019-03-04T10:47:55.050000Z,47.592,-122.54,earthquake,19.79,0.94,ml,0.325,1.49,1.11,UW,BH,DOSE,--,47.7172,-122.972,53.3,"bucket1$170,:3,:15001",100,2019-03-04T10:47:05.050000Z,6099.0,5625.0,0.06,0.06,negative,impulsive,impulsive,7.39|-1.086|-1.276,2019.0,eq,0.94,0.324998811912,0.51,0.176474849539,
171,uw10818413,2010-12-30T09:17:46.240000Z,45.132,-120.932,earthquake,15.995,3.76,ml,0.17,1.09,0.581,TA,BH,F05D,--,45.8852,-121.46,472.0,"bucket1$171,:3,:15001",100,2010-12-30T09:16:56.240000Z,7769.0,6566.0,0.08,0.03,positive,,,40.597|42.333|28.304,2010.0,eq,3.76,0.17,3.6,0.04,
172,uw60056308,2014-06-14T10:30:27.940000Z,45.32,-121.66,earthquake,8.075,0.79,ml,0.098,0.64,0.49,UW,BH,HOOD,--,45.3223,-121.651,1512.0,"bucket1$172,:3,:15001",100,2014-06-14T10:29:37.940000Z,5331.0,5192.0,0.15,0.06,undecidable,emergent,impulsive,4.548|3.17|4.084,2014.0,eq,0.79,0.098,0.47,0.164,
173,uw61898286,2022-12-13T07:24:45.070000Z,47.8281666667,-122.498,earthquake,20.16,1.59,ml,0.156,0.53,0.41,UW,HH,DOSE,--,47.7172,-122.972,53.3,"bucket1$173,:3,:15001",100,2022-12-13T07:23:55.070000Z,6160.0,5639.0,0.06,0.15,undecidable,impulsive,emergent,23.078|22.577|19.214,2022.0,eq,1.59,0.156419432032,1.6,0.337451153115,
174,uw61799827,2021-12-30T06:40:57.340000Z,48.119,-120.654,earthquake,-0.71,1.8,ml,0.104,1.38,0.43,UW,HH,NEL,--,48.078,-120.34,1499.9,"bucket1$174,:3,:15001",100,2021-12-30T06:40:07.340000Z,5738.0,5428.0,0.06,0.03,positive,impulsive,impulsive,21.398|26.765|37.213,2021.0,eq,1.8,0.103548488882,2.11,0.395855760316,
175,uw60432271,2012-06-23T09:12:49.520000Z,47.779,-122.793,earthquake,12.042,0.67,ml,0.131,0.83,0.7,UW,BH,GNW,--,47.5641,-122.825,220.0,"bucket1$175,:3,:15001",100,2012-06-23T09:11:59.520000Z,5800.0,5429.0,0.06,0.03,positive,impulsive,impulsive,5.536|1.579|-3.799,2012.0,eq,0.67,0.131,0.33,0.036,
176,uw61635726,2020-06-02T15:31:16.150000Z,46.824,-121.964,earthquake,4.75,0.49,ml,0.131,0.68,0.63,UW,HH,FMW,--,46.9419,-121.672,1900.0,"bucket1$176,:3,:15001",100,2020-06-02T15:30:26.150000Z,5765.0,5428.0,0.06,0.06,undecidable,impulsive,impulsive,4.119|6.338|3.956,2020.0,eq,0.49,0.131141078718,0.06,0.22785216272,
177,uw61762582,2021-08-25T09:55:38.200000Z,48.529,-123.472,earthquake,26.15,1.39,ml,0.158,1.04,0.63,CN,HH,PTRF,--,48.5442,-124.413,164.0,"bucket1$177,:3,:15001",100,2021-08-25T09:54:48.200000Z,6979.0,6124.0,0.06,0.15,undecidable,impulsive,emergent,12.711|8.916|7.955,2021.0,eq,1.39,0.15780498239,1.15,0.0854675342284,
178,uw60948752,2015-01-20T17:04:17.710000Z,47.002,-122.707,earthquake,50.293,1.81,ml,0.144,0.75,0.39,UW,BH,GNW,--,47.5641,-122.825,220.0,"bucket1$178,:3,:15001",100,2015-01-20T17:03:27.710000Z,7078.0,6173.0,0.06,0.06,positive,impulsive,impulsive,-5.037|8.133|2.259,2015.0,eq,1.81,0.144,1.52,0.125,
179,uw61387497,2018-06-19T05:15:01.720000Z,46.23,-122.118,earthquake,9.14,0.29,ml,0.163,0.92,0.54,CC,BH,JRO,--,46.2753,-122.218,1219.0,"bucket1$179,:3,:15001",100,2018-06-19T05:14:11.720000Z,5439.0,5239.0,0.06,0.06,undecidable,impulsive,impulsive,5.363|5.684|0.596,2018.0,eq,0.29,0.163,0.14,0.184,
180,uw61436396,2018-10-10T10:05:37.160000Z,48.658,-123.274,earthquake,24.01,0.99,ml,0.224,1.54,1.13,CN,HH,PGC,--,48.6498,-123.452,12.0,"bucket1$180,:3,:15001",100,2018-10-10T10:04:47.160000Z,5713.0,5416.0,0.03,0.03,negative,impulsive,impulsive,7.283|-2.126|0.108,2018.0,eq,0.99,0.224,0.46,0.171,
181,uw61776931,2021-09-08T00:25:24.550000Z,47.636,-120.345,earthquake,9.99,0.33,md,0.371,1.79,1.13,UW,HH,WAT2,--,47.6202,-120.114,875.1,"bucket1$181,:3,:15001",100,2021-09-08T00:24:34.550000Z,5613.0,5388.0,0.06,0.15,undecidable,impulsive,emergent,-3.033|4.354|1.356,2021.0,eq,,,0.33,0.370516642671,
182,uw10778313,2009-08-26T15:05:47.190000Z,46.853,-121.749,earthquake,1.377,0.8,ml,0.185,0.29,0.248,UW,BH,LON,--,46.7506,-121.81,853.0,"bucket1$182,:3,:15001",100,2009-08-26T15:04:57.190000Z,5374.0,5216.0,0.04,0.04,undecidable,,,9.07|0.291|1.641,2009.0,eq,0.8,0.185,0.1,0.03,
183,uw61140491,2016-04-09T08:05:23.960000Z,46.233,-122.178,earthquake,7.49,0.45,ml,0.263,1.41,1.43,CC,BH,VALT,--,46.2142,-122.189,1681.0,"bucket1$183,:3,:15001",100,2016-04-09T08:04:33.960000Z,5292.0,5144.0,0.15,0.06,undecidable,emergent,impulsive,22.546|22.617|32.07,2016.0,eq,0.45,0.263,2.31,0.19,
184,uw61342792,2018-01-14T16:10:41.950000Z,46.252,-123.194,earthquake,18.07,1.69,ml,0.176,1.06,0.4,UO,HH,RAIN,--,46.0829,-123.011,236.5,"bucket1$184,:3,:15001",100,2018-01-14T16:09:51.950000Z,5868.0,5469.0,0.15,0.15,undecidable,emergent,emergent,10.58|12.485|14.845,2018.0,eq,1.69,0.176,1.36,0.154,
185,uw60771191,2014-05-12T23:16:30.980000Z,46.244,-122.193,earthquake,3.852,0.92,ml,0.196,0.46,0.32,CC,BH,JRO,--,46.2753,-122.218,1219.0,"bucket1$185,:3,:15001",100,2014-05-12T23:15:40.980000Z,5228.0,5126.0,0.06,0.06,positive,impulsive,impulsive,10.231|4.476|22.856,2014.0,eq,0.92,0.196,0.95,0.435,
186,uw10818388,2011-05-27T06:15:21.180000Z,46.852,-121.756,earthquake,0.606,0.7,ml,0.113,0.33,0.092,UW,BH,LON,--,46.7506,-121.81,853.0,"bucket1$186,:3,:15001",100,2011-05-27T06:14:31.180000Z,5364.0,5207.0,0.06,0.15,undecidable,,,0.688|-1.42|3.501,2011.0,eq,0.7,0.113,1.1,0.08,
187,uw61803827,2022-01-25T14:48:56.440000Z,46.197,-122.188,earthquake,3.56,0.22,ml,0.16,0.4,0.32,CC,BH,HOA,--,46.2418,-122.192,1151.0,"bucket1$187,:3,:15001",100,2022-01-25T14:48:06.440000Z,5260.0,5142.0,0.06,0.03,positive,impulsive,impulsive,9.877|3.840|5.946,2022.0,eq,0.22,0.160267766463,1.19,0.0946620225591,
188,uw61603682,2020-04-24T02:30:57.760000Z,46.863,-121.942,earthquake,8.59,0.3,ml,0.096,0.37,0.4,CC,BH,SIFT,--,46.8669,-121.953,732.0,"bucket1$188,:3,:15001",100,2020-04-24T02:30:07.760000Z,5296.0,5170.0,0.03,0.03,undecidable,impulsive,impulsive,8.122|7.613|5.448,2020.0,eq,0.3,0.096369889857,-0.02,0.317307804451,
189,uw60550821,2013-07-10T10:01:15.020000Z,47.761,-121.873,earthquake,4.722,1.41,ml,0.134,1.93,0.46,TA,BH,B05D,--,48.2641,-122.096,153.0,"bucket1$189,:3,:15001",100,2013-07-10T10:00:25.020000Z,6698.0,5953.0,0.06,0.03,negative,impulsive,impulsive,4.347|3.643|6.26,2013.0,eq,1.41,0.134,1.1,0.232,
190,uw61828387,2022-05-05T23:19:56.070000Z,49.134,-125.411,earthquake,4.91,2.77,ml,0.347,31.61,2.5,CN,HH,GDR,--,49.7805,-126.056,123.0,"bucket1$190,:3,:15001",100,2022-05-05T23:19:06.070000Z,7116.0,6073.0,0.15,0.06,negative,emergent,impulsive,11.346|6.225|5.858,2022.0,eq,2.77,0.347034489089,1.77,0.34750027433,
