,event_id,source_origin_time,source_latitude_deg,source_longitude_deg,source_type,source_depth_km,preferred_source_magnitude,preferred_source_magnitude_type,preferred_source_magnitude_uncertainty,source_depth_uncertainty_km,source_horizontal_uncertainty_km,station_network_code,station_channel_code,station_code,station_location_code,station_latitude_deg,station_longitude_deg,station_elevation_m,trace_name,trace_sampling_rate_hz,trace_start_time,trace_S_arrival_sample,trace_P_arrival_sample,trace_S_arrival_uncertainty_s,trace_P_arrival_uncertainty_s,trace_P_polarity,trace_S_onset,trace_P_onset,trace_snr_db,year,source_type_pnsn_label,source_local_magnitude,source_local_magnitude_uncertainty,source_duration_magnitude,source_duration_magnitude_uncertainty,source_hand_magnitude
318,uw61523817,2019-05-22T11:43:17.220000Z,47.74,-120.698,earthquake,-0.57,1.74,ml,0.156,1.77,0.31,UW,HH,WAT2,--,47.6202,-120.114,875.1,"bucket1$318,:3,:15001",100,2019-05-22T11:42:27.220000Z,6335.0,5769.0,0.15,0.15,undecidable,emergent,emergent,11.475|13.008|11.164,2019.0,eq,1.74,0.155656355356,2.16,0.262001647336,
319,uw61800586,2021-11-26T07:09:19.970000Z,48.314,-122.119,earthquake,13.11,1.2,ml,0.118,0.84,0.36,UW,HH,SAXON,--,48.6833,-122.161,110.8,"bucket1$319,:3,:15001",100,2021-11-26T07:08:29.970000Z,6258.0,5707.0,0.06,0.06,negative,impulsive,impulsive,0.511|1.534|-0.887,2021.0,eq,1.2,0.118201048442,1.07,0.113268854443,
320,uw61712466,2021-02-08T05:29:25.330000Z,45.847,-122.263,earthquake,7.62,1.32,ml,0.0880013878741,0.33,0.47,UW,HH,YACT,--,45.9325,-122.419,211.2,"bucket1$320,:3,:15001",100,2021-02-08T05:28:35.330000Z,5538.0,5297.0,0.06,0.03,positive,impulsive,impulsive,nan|14.656|15.043,2021.0,eq,1.32,0.0880013878741,1.66,0.346060387817,
321,uw61567251,2020-01-15T09:26:11.210000Z,48.375,-123.294,earthquake,21.91,1.2,ml,0.102,1.3,0.77,CN,HH,SYMB,--,48.5593,-123.799,945.0,"bucket1$321,:3,:15001",100,2020-01-15T09:25:21.210000Z,6236.0,5709.0,0.15,0.06,negative,emergent,impulsive,1.586|-0.897|1.588,2020.0,eq,1.2,0.102319456956,0.91,0.177815464483,
322,uw10823793,2011-09-04T06:52:26.230000Z,46.405,-119.273,earthquake,2.3,1.34,ml,0.056,0.72,0.214,HW,BH,DDRF,--,46.4911,-119.06,233.0,"bucket1$322,:3,:15001",100,2011-09-04T06:51:36.230000Z,5655.0,5375.0,0.08,0.03,positive,,,12.487|14.645|8.62,2011.0,eq,1.34,0.056,1.3,0.05,
323,uw61731822,2021-06-08T09:16:09.480000Z,47.986,-122.716,earthquake,20.12,1.22,ml,0.066,0.63,0.35,UW,HH,BERY,--,48.2641,-122.096,149.6,"bucket1$323,:3,:15001",100,2021-06-08T09:15:19.480000Z,6637.0,5945.0,0.06,0.06,negative,impulsive,impulsive,8.175|1.997|3.954,2021.0,eq,1.22,0.0378862607675,0.93,0.200419829119,
324,uw61624356,2020-05-11T22:20:07.380000Z,46.249,-122.1,earthquake,3.86,0.29,ml,0.204,0.44,0.49,CC,BH,STD,--,46.2375,-122.224,1189.0,"bucket1$324,:3,:15001",100,2020-05-11T22:19:17.380000Z,5385.0,5204.0,0.06,0.15,undecidable,impulsive,emergent,4.686|12.429|3.464,2020.0,eq,0.29,0.203683363296,0.13,0.200719566413,
325,uw60456097,2012-09-26T04:42:26.220000Z,46.81,-121.749,earthquake,7.309,0.5,ml,0.131,1.24,0.96,CC,BH,PANH,--,46.859,-121.643,2086.0,"bucket1$325,:3,:15001",100,2012-09-26T04:41:36.220000Z,5434.0,5216.0,0.06,0.03,positive,impulsive,impulsive,8.271|2.883|2.198,2012.0,eq,0.5,0.131,0.18,0.175,
326,uw10768653,2009-04-08T13:15:12.740000Z,47.432,-122.339,earthquake,22.312,1.63,ml,0.178,0.96,0.314,UW,BH,LON,--,46.7506,-121.81,853.0,"bucket1$326,:3,:15001",100,2009-04-08T13:14:22.740000Z,7386.0,6376.0,0.05,0.04,undecidable,,,7.108|1.481|3.194,2009.0,eq,1.63,0.178,1.8,0.03,
327,uw61583827,2020-03-17T09:59:30.780000Z,46.853,-121.752,earthquake,0.64,0.38,ml,0.023,0.48,0.27,CC,BH,OBSR,--,46.8997,-121.815,2382.0,"bucket1$327,:3,:15001",100,2020-03-17T09:58:40.780000Z,5258.0,5133.0,0.15,0.03,positive,emergent,impulsive,5.152|8.364|7.168,2020.0,eq,0.38,0.0380052531061,-0.14,0.164062416173,
328,uw61563277,2019-12-08T22:37:15.680000Z,47.917,-122.612,earthquake,19.82,1.93,ml,0.251,0.62,0.38,UW,HH,DONK,--,48.4238,-122.157,892.8,"bucket1$328,:3,:15001",100,2019-12-08T22:36:25.680000Z,6959.0,6103.0,0.3,0.06,negative,emergent,impulsive,-1.072|-2.295|-6.133,2019.0,eq,1.93,0.250590705749,1.57,0.129814031739,
329,uw10697223,2006-08-06T00:38:36.960000Z,46.867,-121.903,earthquake,9.852,0.8,md,0.04,0.29,0.313,TA,BH,E05A,--,46.5605,-121.761,1481.0,"bucket1$329,:3,:15001",100,2006-08-06T00:37:46.960000Z,6087.0,5619.0,0.06,0.03,negative,,,2.717|1.501|-2.342,2006.0,eq,,,0.8,0.04,
330,uw61502616,2018-11-06T06:22:11.480000Z,46.581,-119.827,earthquake,7.2,0.48,ml,0.078,0.2,0.28,UW,HH,SNI2,--,46.4648,-119.655,294.2,"bucket1$330,:3,:15001",100,2018-11-06T06:21:21.480000Z,5700.0,5390.0,0.06,0.03,negative,impulsive,impulsive,6.968|-5.133|-4.777,2018.0,eq,0.48,0.0776386371611,0.26,0.280242671496,
331,uw10776898,2009-04-20T21:59:18.300000Z,45.13,-120.946,earthquake,15.478,2.0,ml,0.157,1.8,0.707,UW,BH,BLOW,--,44.6837,-122.186,657.3,"bucket1$331,:3,:15001",100,2009-04-20T21:58:28.300000Z,8098.0,6765.0,0.1,0.1,undecidable,,,7.245|9.17|6.994,2009.0,eq,2.0,0.157,2.5,0.05,
332,uw60454037,2012-09-20T08:58:47.740000Z,46.474,-122.31,earthquake,15.744,1.33,ml,0.228,0.87,0.41,CC,BH,STD,--,46.2375,-122.224,1189.0,"bucket1$332,:3,:15001",100,2012-09-20T08:57:57.740000Z,5944.0,5528.0,0.15,0.03,positive,emergent,impulsive,19.953|7.365|11.692,2012.0,eq,1.33,0.228,0.94,0.059,
333,uw61687417,2020-10-28T01:36:26.030000Z,43.207,-124.446,earthquake,15.39,1.83,ml,0.103,1.12,1.1,UO,HH,DBO,--,43.1187,-123.244,957.0,"bucket1$333,:3,:15001",100,2020-10-28T01:35:36.030000Z,7820.0,6528.0,0.15,0.15,undecidable,emergent,emergent,2.332|2.739|-2.33,2020.0,eq,1.83,0.102615611963,1.48,0.0287782357425,
334,uw10576748,2002-12-30T07:41:35.500000Z,45.373,-121.677,earthquake,0.117,1.2,md,0.02,0.41,0.531,UW,BH,HOOD,--,45.3223,-121.651,1512.0,"bucket1$334,:3,:15001",100,2002-12-30T07:40:45.500000Z,5293.0,5163.0,0.02,0.02,undecidable,,,12.601|11.045|11.951,2002.0,eq,,,1.2,0.02,
335,uw61875882,2022-09-30T04:53:25.100000Z,47.264,-122.881,earthquake,30.94,2.16,ml,0.186,0.64,0.34,CC,BH,RUSH,--,46.9031,-121.944,1235.0,"bucket1$335,:3,:15001",100,2022-09-30T04:52:35.100000Z,7359.0,6358.0,0.06,0.06,positive,impulsive,impulsive,16.771|18.412|17.496,2022.0,eq,2.16,0.186146260987,1.97,0.341022195631,
336,uw60813061,2014-06-19T15:16:22.940000Z,46.573,-119.837,earthquake,8.364,0.89,ml,0.131,0.35,0.34,UW,HH,CCRK,--,46.5585,-119.855,561.0,"bucket1$336,:3,:15001",100,2014-06-19T15:15:32.940000Z,5324.0,5172.0,0.06,0.03,positive,impulsive,impulsive,19.904|18.951|15.175,2014.0,eq,0.89,0.131,0.56,0.323,
337,uw61394441,2018-05-30T22:20:45.600000Z,47.803,-122.319,earthquake,25.0,2.73,ml,0.168,0.38,0.28,UW,BH,GNW,--,47.5641,-122.825,220.0,"bucket1$337,:3,:15001",100,2018-05-30T22:19:55.600000Z,6422.0,5804.0,0.15,0.06,undecidable,emergent,impulsive,38.916|33.808|28.784,2018.0,eq,2.73,0.168,2.85,0.218,
338,uw61785677,2021-11-02T07:09:06.090000Z,48.622,-123.061,earthquake,14.83,1.22,ml,0.109,0.62,0.44,UW,HH,RNWY,--,48.6121,-123.126,58.2,"bucket1$338,:3,:15001",100,2021-11-02T07:08:16.090000Z,5464.0,5262.0,0.03,0.03,positive,impulsive,impulsive,10.301|8.704|6.655,2021.0,eq,1.22,0.108957454715,0.51,0.252548158388,
339,uw60606327,2013-10-06T07:58:28.340000Z,47.81,-122.676,earthquake,10.609,0.52,ml,0.063,1.49,0.75,UW,BH,DOSE,--,47.7172,-122.972,53.3,"bucket1$339,:3,:15001",100,2013-10-06T07:57:38.340000Z,5770.0,5435.0,0.06,0.06,negative,impulsive,impulsive,7.365|-3.533|4.856,2013.0,eq,0.52,0.063,0.51,0.134,
340,uw61166217,2016-07-14T17:01:30.940000Z,46.776,-121.958,earthquake,7.52,1.48,ml,0.346,0.69,0.47,UW,BH,RATT,--,47.4255,-121.802,442.4,"bucket1$340,:3,:15001",100,2016-07-14T17:00:40.940000Z,7127.0,6190.0,0.06,0.06,undecidable,impulsive,impulsive,8.121|14.394|14.715,2016.0,eq,1.48,0.346,1.24,0.295,
341,uw60077513,2014-08-21T11:45:52.640000Z,46.493,-122.41,earthquake,15.321,0.31,md,0.084702150362,1.14,1.1,TA,BH,E04D,--,46.5566,-122.567,204.0,"bucket1$341,:3,:15001",100,2014-08-21T11:45:02.640000Z,5606.0,5350.0,0.15,0.03,positive,emergent,impulsive,0.124|-1.593|-3.091,2014.0,eq,,,0.31,0.084702150362,
342,uw10830228,2011-09-22T20:22:06.590000Z,47.428,-122.048,earthquake,30.893,3.2,ml,0.219,0.88,0.58,UW,BH,SP2,--,47.5563,-122.249,30.0,"bucket1$342,:3,:15001",100,2011-09-22T20:21:16.590000Z,6004.0,5546.0,0.03,0.03,negative,,,30.495|30.511|29.491,2011.0,eq,3.2,0.219,3.27,0.264,
343,uw61238976,2016-12-11T17:11:27.930000Z,48.328,-124.941,earthquake,19.02,2.09,ml,0.198,2.48,2.04,CN,HH,PFB,--,48.5747,-124.454,449.0,"bucket1$343,:3,:15001",100,2016-12-11T17:10:37.930000Z,6391.0,5699.0,0.06,0.03,positive,impulsive,impulsive,7.361|5.302|7.585,2016.0,eq,2.09,0.198,1.72,0.143,
344,uw61893746,2022-11-10T13:13:04.080000Z,46.8461666667,-121.9345,earthquake,10.08,0.19,ml,0.228,0.37,0.39,UW,HH,FMW,--,46.9419,-121.672,1900.0,"bucket1$344,:3,:15001",100,2022-11-10T13:12:14.080000Z,5737.0,5412.0,0.15,0.06,positive,emergent,impulsive,0.449|-2.541|4.294,2022.0,eq,0.19,0.228378183891,-0.11,0.164984853725,
345,uw61775796,2021-09-04T00:40:43.280000Z,46.874,-121.927,earthquake,9.2,0.17,ml,0.167494865682,0.74,0.37,CC,BH,VOIT,--,46.9663,-121.983,977.1,"bucket1$345,:3,:15001",100,2021-09-04T00:39:53.280000Z,5444.0,5258.0,0.06,,undecidable,impulsive,,8.002|0.586|0.318,2021.0,eq,0.17,0.167494865682,-0.2,0.181222976861,
346,uw60804311,2014-06-09T09:40:29.710000Z,48.6,-123.084,earthquake,11.749,0.4,md,0.106,0.74,0.35,CN,HH,VGZ,--,48.4131,-123.325,67.0,"bucket1$346,:3,:15001",100,2014-06-09T09:39:39.710000Z,5861.0,5487.0,0.15,0.06,undecidable,emergent,impulsive,3.502|-0.562|-0.034,2014.0,eq,,,0.4,0.106,
347,uw61845982,2022-06-24T22:41:05.180000Z,48.263,-120.727,earthquake,8.76,1.72,ml,0.159,23.51,0.57,UW,HH,DY2,--,47.985,-119.772,892.0,"bucket1$347,:3,:15001",100,2022-06-24T22:40:15.180000Z,7237.0,6277.0,0.15,0.15,undecidable,emergent,emergent,17.777|15.629|19.438,2022.0,eq,1.72,0.159133971211,2.49,0.261647737001,
348,uw60403696,2012-03-19T00:23:33.540000Z,47.6,-122.746,earthquake,15.168,0.66,ml,0.173,0.83,0.68,TA,BH,D03D,--,47.5347,-123.089,262.0,"bucket1$348,:3,:15001",100,2012-03-19T00:22:43.540000Z,5871.0,5496.0,0.06,0.03,negative,impulsive,impulsive,-2.13|0.435|1.44,2012.0,eq,0.66,0.173,0.09,0.254,
349,uw60403206,2012-03-15T03:33:52.170000Z,45.331,-121.758,earthquake,1.984,1.16,ml,0.082,31.61,2.47,TA,BH,G05D,--,45.2422,-121.317,592.0,"bucket1$349,:3,:15001",100,2012-03-15T03:33:02.170000Z,6233.0,5685.0,0.06,0.06,positive,impulsive,impulsive,1.794|-2.285|-3.99,2012.0,eq,1.16,0.082,0.75,0.286,
350,uw10831363,2011-11-17T16:39:15.570000Z,47.696,-122.974,earthquake,45.735,1.53,ml,0.067,1.11,1.53,UW,BH,DOSE,--,47.7172,-122.972,53.3,"bucket1$350,:3,:15001",100,2011-11-17T16:38:25.570000Z,6196.0,5661.0,0.12,0.06,negative,impulsive,impulsive,4.928|12.889|4.672,2011.0,eq,1.53,0.067,1.08,0.251,
351,uw60628021,2013-11-12T09:16:29.540000Z,46.459,-121.704,earthquake,0.68,1.2,ml,0.139,1.78,0.35,TA,BH,F05D,--,45.8852,-121.46,472.0,"bucket1$351,:3,:15001",100,2013-11-12T09:15:39.540000Z,7045.0,6136.0,0.15,0.06,positive,emergent,impulsive,4.846|1.243|-5.205,2013.0,eq,1.2,0.139,1.09,0.107,
352,uw61614622,2020-05-15T04:19:43.440000Z,46.35,-122.27,earthquake,13.75,2.22,ml,0.231,0.53,0.3,CC,BH,CARB,--,46.9883,-122.005,872.5,"bucket1$352,:3,:15001",100,2020-05-15T04:18:53.440000Z,7126.0,6206.0,0.15,0.03,negative,emergent,impulsive,21.774|14.143|10.697,2020.0,eq,2.22,0.23052880132,2.3,0.4710324891,
353,uw60428101,2012-06-12T14:55:04.790000Z,46.848,-121.922,earthquake,10.484,1.03,ml,0.215,0.64,0.35,CC,BH,OBSR,--,46.8997,-121.815,2382.0,"bucket1$353,:3,:15001",100,2012-06-12T14:54:14.790000Z,5479.0,5269.0,0.06,0.03,positive,impulsive,impulsive,21.146|15.88|24.306,2012.0,eq,1.03,0.215,0.64,0.384,
354,uw61821696,2022-03-11T00:56:12.000000Z,47.441,-121.81,earthquake,20.05,1.29,ml,0.249,0.4,0.62,UW,HH,GNW,--,47.5641,-122.825,220.0,"bucket1$354,:3,:15001",100,2022-03-11T00:55:22.000000Z,7243.0,6269.0,0.15,0.06,negative,emergent,impulsive,2.580|-5.752|3.289,2022.0,eq,1.29,0.249159194688,1.45,0.198215804911,
355,uw61886537,2022-11-21T02:50:15.680000Z,46.3271666667,-122.2435,earthquake,9.65,0.65,ml,0.11,0.95,0.68,CC,BH,STD,01,46.2368,-122.224,1259.0,"bucket1$355,:3,:15001",100,2022-11-21T02:49:25.680000Z,5496.0,5262.0,0.15,0.06,positive,emergent,emergent,18.551|19.502|9.682,2022.0,eq,0.65,0.10975844431,0.9,0.552367211478,
356,uw61565307,2019-12-28T01:39:27.220000Z,47.043,-122.026,earthquake,10.31,1.3,ml,0.17,0.44,0.29,CC,BH,SIFT,--,46.8669,-121.953,732.0,"bucket1$356,:3,:15001",100,2019-12-28T01:38:37.220000Z,5663.0,5381.0,0.06,0.06,negative,impulsive,impulsive,5.405|10.722|3.443,2019.0,eq,1.3,0.170013378215,0.94,0.255077506854,
357,uw60999156,2015-04-15T11:04:23.330000Z,46.344,-122.244,earthquake,11.368,1.06,ml,0.134,0.53,0.38,CC,BH,OBSR,--,46.8997,-121.815,2382.0,"bucket1$357,:3,:15001",100,2015-04-15T11:03:33.330000Z,7048.0,6171.0,0.15,0.15,undecidable,emergent,emergent,-1.153|2.038|-1.281,2015.0,eq,1.06,0.134,0.75,0.185,
358,uw61022802,2015-06-08T03:40:36.520000Z,47.933,-121.565,earthquake,7.102,1.46,ml,0.119,0.93,0.4,UW,BH,LTY,--,47.2545,-120.666,807.0,"bucket1$358,:3,:15001",100,2015-06-08T03:39:46.520000Z,7866.0,6656.0,0.06,0.15,undecidable,impulsive,emergent,-5.899|2.259|-2.307,2015.0,eq,1.46,0.119,1.05,0.032,
359,uw60634407,2013-11-22T22:36:30.550000Z,45.372,-121.707,earthquake,-0.177,1.94,ml,0.142,0.53,0.29,UW,BH,HOOD,--,45.3223,-121.651,1512.0,"bucket1$359,:3,:15001",100,2013-11-22T22:35:40.550000Z,5303.0,5173.0,0.06,0.03,positive,impulsive,impulsive,36.808|44.83|38.231,2013.0,eq,1.94,0.142,2.13,0.327,
360,uw61889246,2022-10-22T00:59:12.690000Z,46.601,-119.8825,earthquake,6.49,1.48,ml,0.132,0.21,0.23,UW,HH,MOX,--,46.5772,-120.299,501.0,"bucket1$360,:3,:15001",100,2022-10-22T00:58:22.690000Z,6116.0,5641.0,0.15,0.15,undecidable,emergent,emergent,10.474|10.344|-1.109,2022.0,eq,1.48,0.132407206309,1.39,0.130005401498,
361,uw61755591,2021-07-19T11:34:41.440000Z,46.885,-121.948,earthquake,12.83,0.98,ml,0.132,0.41,0.38,CC,BH,RUSH,--,46.9031,-121.944,1235.0,"bucket1$361,:3,:15001",100,2021-07-19T11:33:51.440000Z,5426.0,5246.0,0.06,0.03,positive,impulsive,impulsive,35.266|28.313|28.622,2021.0,eq,0.98,0.132326603186,0.93,0.349853803148,
362,uw61315386,2017-08-17T15:09:35.330000Z,47.269,-122.702,earthquake,22.43,1.4,ml,0.183,1.0,0.48,CC,BH,OBSR,--,46.8997,-121.815,2382.0,"bucket1$362,:3,:15001",100,2017-08-17T15:08:45.330000Z,7261.0,6271.0,0.06,0.15,undecidable,impulsive,emergent,17.824|18.366|15.734,2017.0,eq,1.4,0.183,1.4,0.195,
363,uw61683156,2020-09-14T00:05:55.110000Z,48.5,-123.376,earthquake,25.27,2.21,ml,0.187,0.51,0.31,UW,HH,DOSE,--,47.7172,-122.972,53.3,"bucket1$363,:3,:15001",100,2020-09-14T00:05:05.110000Z,7572.0,6412.0,0.15,0.03,positive,emergent,impulsive,25.709|25.49|21.148,2020.0,eq,2.21,0.186768960415,1.9,0.142268039575,
364,uw61708121,2021-01-05T07:30:28.850000Z,45.419,-117.603,earthquake,1.7,2.44,ml,0.395,3.34,1.38,US,BH,BMO,00,44.8525,-117.306,1154.0,"bucket1$364,:3,:15001",100,2021-01-05T07:29:38.850000Z,7005.0,6173.0,0.06,0.03,negative,impulsive,impulsive,31.314|23.342|25.647,2021.0,eq,2.44,0.394863892524,2.4,0.0607170337468,
365,uw61782067,2021-10-18T15:45:27.600000Z,45.371,-121.701,earthquake,2.62,0.15,md,0.388,0.57,0.35,CC,BH,YOCR,--,45.3792,-121.743,1913.7,"bucket1$365,:3,:15001",100,2021-10-18T15:44:37.600000Z,5229.0,5135.0,0.06,0.03,negative,impulsive,impulsive,8.687|6.902|5.951,2021.0,eq,,,0.15,0.388058650873,
366,uw61814612,2022-03-19T16:52:45.850000Z,47.903,-121.845,earthquake,16.19,1.18,ml,0.098,0.67,0.28,UW,HH,BHW,--,47.8361,-122.033,217.0,"bucket1$366,:3,:15001",100,2022-03-19T16:51:55.850000Z,5677.0,5371.0,0.06,0.03,positive,impulsive,impulsive,2.589|-0.392|7.297,2022.0,eq,1.18,0.0976332256043,1.36,0.484232623951,
367,uw61337006,2017-10-03T23:51:39.210000Z,47.996,-122.751,earthquake,14.52,0.96,ml,0.113,1.42,1.19,CN,HH,VGZ,--,48.4131,-123.325,67.0,"bucket1$367,:3,:15001",100,2017-10-03T23:50:49.210000Z,6793.0,5994.0,0.06,0.15,undecidable,impulsive,emergent,0.301|2.813|-0.784,2017.0,eq,0.96,0.113,0.94,0.056,
368,uw61595887,2020-04-09T21:11:56.970000Z,47.592,-121.72,earthquake,8.58,1.13,ml,0.122,0.93,0.78,CC,BH,PANH,--,46.859,-121.643,2086.0,"bucket1$368,:3,:15001",100,2020-04-09T21:11:06.970000Z,7323.0,6313.0,0.06,0.06,undecidable,impulsive,impulsive,-8.102|-3.173|1.958,2020.0,eq,1.13,0.121771126576,1.45,0.15914185301,
369,uw61803812,2022-01-25T12:37:50.480000Z,47.961,-121.969,earthquake,13.28,1.19,ml,0.119,0.6,0.3,UW,HH,BHW,--,47.8361,-122.033,217.0,"bucket1$369,:3,:15001",100,2022-01-25T12:37:00.480000Z,5617.0,5334.0,0.15,0.03,positive,emergent,impulsive,-4.515|0.620|4.032,2022.0,eq,1.19,0.119283085591,0.73,0.14646728751,
370,uw60460431,2012-09-02T11:29:35.020000Z,46.568,-119.668,earthquake,11.908,0.49,ml,0.162,1.0,0.76,US,BH,HAWA,00,46.3925,-119.533,364.0,"bucket1$370,:3,:15001",100,2012-09-02T11:28:45.020000Z,5855.0,5503.0,0.06,0.15,undecidable,impulsive,emergent,2.64|1.197|-2.132,2012.0,eq,0.49,0.162,0.42,0.08,
371,uw61362501,2018-01-03T11:36:47.970000Z,46.25,-122.068,earthquake,8.76,0.35,ml,0.199,0.89,0.6,CC,BH,STD,--,46.2375,-122.224,1189.0,"bucket1$371,:3,:15001",100,2018-01-03T11:35:57.970000Z,5515.0,5277.0,0.06,0.06,undecidable,impulsive,impulsive,6.431|5.602|2.598,2018.0,eq,0.35,0.199,0.29,0.154,
372,uw61278016,2017-05-03T21:58:17.120000Z,47.581,-122.576,earthquake,23.23,1.64,ml,0.18,1.02,0.55,UW,BH,DOSE,--,47.7172,-122.972,53.3,"bucket1$372,:3,:15001",100,2017-05-03T21:57:27.120000Z,6109.0,5627.0,0.06,0.03,positive,impulsive,impulsive,24.553|18.504|15.727,2017.0,eq,1.64,0.18,1.45,0.443,
373,uw10576938,2003-01-19T18:44:02.900000Z,45.329,-121.683,earthquake,4.918,0.8,md,0.03,0.33,0.452,UW,BH,HOOD,--,45.3223,-121.651,1512.0,"bucket1$373,:3,:15001",100,2003-01-19T18:43:12.900000Z,5268.0,5152.0,0.02,0.02,positive,,,21.545|17.943|11.036,2003.0,eq,,,0.8,0.03,
374,uw60474296,2012-10-09T10:07:58.130000Z,45.628,-122.671,earthquake,8.83,1.1,ml,0.179,2.38,1.65,UW,BH,BLOW,--,44.6837,-122.186,657.3,"bucket1$374,:3,:15001",100,2012-10-09T10:07:08.130000Z,7997.0,6697.0,0.06,0.06,positive,impulsive,impulsive,1.03|5.878|6.381,2012.0,eq,1.1,0.179,1.53,0.17,
375,uw61046286,2015-06-25T08:34:26.480000Z,46.772,-120.549,earthquake,7.74,0.83,ml,0.118,0.79,0.42,UW,BH,LTY,--,47.2545,-120.666,807.0,"bucket1$375,:3,:15001",100,2015-06-25T08:33:36.480000Z,6675.0,5955.0,0.06,0.03,negative,impulsive,impulsive,-1.308|0.217|-2.261,2015.0,eq,0.83,0.118,1.09,0.643,
376,uw61534671,2019-07-10T04:18:16.770000Z,45.322,-121.733,earthquake,3.66,1.96,ml,0.088,0.4,0.38,UW,HH,LCCR,--,45.2059,-122.478,271.0,"bucket1$376,:3,:15001",100,2019-07-10T04:17:26.770000Z,6855.0,6052.0,0.15,0.06,positive,emergent,impulsive,9.072|11.9|19.754,2019.0,eq,1.96,0.0878722777067,2.13,0.283072039839,
377,uw61717912,2021-04-25T14:48:10.150000Z,46.205,-122.188,earthquake,7.42,0.24,ml,0.183,0.79,1.09,CC,BH,VALT,--,46.2142,-122.189,1681.0,"bucket1$377,:3,:15001",100,2021-04-25T14:47:20.150000Z,5327.0,5178.0,0.06,0.15,undecidable,impulsive,emergent,6.421|10.542|7.326,2021.0,eq,0.24,0.183321645568,0.29,0.346020554435,
378,uw10804403,2010-05-24T17:31:03.730000Z,47.691,-121.863,earthquake,11.378,1.61,ml,0.099,0.49,0.334,UW,BH,TOLT,--,47.6947,-121.689,541.0,"bucket1$378,:3,:15001",100,2010-05-24T17:30:13.730000Z,5518.0,5288.0,0.02,0.02,undecidable,,,23.32|21.637|15.486,2010.0,eq,1.61,0.099,1.6,0.04,
379,uw61700256,2020-11-08T07:11:17.610000Z,46.853,-121.752,earthquake,1.62,0.46,ml,0.122,0.49,0.27,CC,BH,SIFT,--,46.8668,-121.953,732.0,"bucket1$379,:3,:15001",100,2020-11-08T07:10:27.610000Z,5475.0,5271.0,0.06,0.06,positive,impulsive,impulsive,-1.291|0.383|0.508,2020.0,eq,0.46,0.122009738451,-0.24,0.180879045241,
380,uw61131756,2016-03-10T21:33:06.820000Z,48.322,-122.097,earthquake,12.42,1.8,ml,0.109,0.53,0.41,TA,BH,B05D,--,48.2641,-122.096,153.0,"bucket1$380,:3,:15001",100,2016-03-10T21:32:16.820000Z,5430.0,5228.0,0.03,0.03,positive,impulsive,impulsive,8.772|17.096|10.586,2016.0,eq,1.8,0.109,1.53,0.368,
