,event_id,source_origin_time,source_latitude_deg,source_longitude_deg,source_type,source_depth_km,preferred_source_magnitude,preferred_source_magnitude_type,preferred_source_magnitude_uncertainty,source_depth_uncertainty_km,source_horizontal_uncertainty_km,station_network_code,station_channel_code,station_code,station_location_code,station_latitude_deg,station_longitude_deg,station_elevation_m,trace_name,trace_sampling_rate_hz,trace_start_time,trace_S_arrival_sample,trace_P_arrival_sample,trace_S_arrival_uncertainty_s,trace_P_arrival_uncertainty_s,trace_P_polarity,trace_S_onset,trace_P_onset,trace_snr_db,year,source_type_pnsn_label,source_local_magnitude,source_local_magnitude_uncertainty,source_duration_magnitude,source_duration_magnitude_uncertainty,source_hand_magnitude
191,uw61064587,2015-09-12T17:30:14.460000Z,41.834,-119.621,earthquake,3.762,2.58,ml,0.016,5.28,2.74,US,BH,WVOR,00,42.4339,-118.637,1344.0,"bucket1$191,:3,:15001",100,2015-09-12T17:29:24.460000Z,7992.0,6714.0,0.06,0.03,positive,impulsive,impulsive,7.999|12.565|6.68,2015.0,eq,2.58,0.016,2.33,0.194,
192,uw61549927,2019-09-10T10:49:09.990000Z,46.434,-122.397,earthquake,10.07,0.93,ml,0.217,1.1,0.47,CC,BH,JRO,--,46.2753,-122.218,1219.0,"bucket1$192,:3,:15001",100,2019-09-10T10:48:19.990000Z,5764.0,5426.0,0.06,0.06,negative,impulsive,impulsive,13.933|16.441|11.273,2019.0,eq,0.93,0.21677008142,1.01,0.162134188505,
193,uw61660116,2020-07-17T15:50:52.910000Z,48.131,-124.504,earthquake,24.79,1.92,ml,0.225,0.99,0.47,UW,HH,FORK,--,47.9475,-124.566,44.9,"bucket1$193,:3,:15001",100,2020-07-17T15:50:02.910000Z,5943.0,5520.0,0.15,0.06,positive,emergent,impulsive,17.59|11.115|8.638,2020.0,eq,1.92,0.22525719929,1.53,0.159902320648,
194,uw10727463,2007-11-18T13:07:37.690000Z,46.342,-119.674,earthquake,7.023,0.0,md,0.04,0.59,0.63,US,BH,HAWA,--,46.3925,-119.533,364.0,"bucket1$194,:3,:15001",100,2007-11-18T13:06:47.690000Z,5513.0,5281.0,0.06,0.05,undecidable,,,-5.652|8.51|-2.224,2007.0,eq,,,0.0,0.04,
195,uw61749201,2021-07-01T19:32:42.710000Z,45.34,-121.7,earthquake,3.83,0.65,ml,0.028,0.57,0.31,CC,BH,HIYU,--,45.4352,-121.807,1418.0,"bucket1$195,:3,:15001",100,2021-07-01T19:31:52.710000Z,5527.0,5295.0,0.06,0.15,undecidable,impulsive,emergent,6.4|3.011|-1.749,2021.0,eq,0.65,0.0281283105666,0.21,0.0297603350003,
196,uw61343542,2018-01-17T20:14:08.850000Z,46.613,-119.842,earthquake,6.19,1.21,ml,0.076,0.21,0.3,UW,HH,CCRK,--,46.5585,-119.855,561.0,"bucket1$196,:3,:15001",100,2018-01-17T20:13:18.850000Z,5326.0,5181.0,0.15,0.03,negative,emergent,impulsive,10.112|16.299|13.763,2018.0,eq,1.21,0.076,1.0,0.244,
197,uw61595792,2020-04-09T17:36:09.580000Z,46.302,-122.346,earthquake,13.22,0.1,ml,0.111,0.66,0.53,CC,BH,STD,--,46.2375,-122.224,1189.0,"bucket1$197,:3,:15001",100,2020-04-09T17:35:19.580000Z,5607.0,5318.0,0.15,0.06,undecidable,emergent,impulsive,2.266|7.363|0.793,2020.0,eq,0.1,0.110960689603,-0.04,0.101227512828,
198,uw61701776,2020-11-16T11:05:07.470000Z,48.559,-122.613,earthquake,14.19,2.48,ml,0.159,1.36,0.48,CN,HH,VGZ,--,48.4131,-123.325,67.0,"bucket1$198,:3,:15001",100,2020-11-16T11:04:17.470000Z,6540.0,5864.0,0.15,0.03,positive,emergent,impulsive,12.709|16.517|14.524,2020.0,eq,2.48,0.159232698052,2.36,0.162666819696,
199,uw61874602,2022-09-25T07:02:32.350000Z,48.569,-124.946,earthquake,28.65,1.8,ml,0.186,2.07,1.28,CN,HH,CLRS,--,48.8203,-124.131,174.0,"bucket1$199,:3,:15001",100,2022-09-25T07:01:42.350000Z,7047.0,6131.0,0.15,0.06,negative,emergent,impulsive,4.521|5.086|-3.420,2022.0,eq,1.8,0.185636538927,1.19,0.0918636693487,
200,uw61711746,2021-02-03T10:48:38.090000Z,47.989,-121.933,earthquake,8.73,1.31,ml,0.297,0.77,0.47,UW,HH,RATT,--,47.4255,-121.802,442.4,"bucket1$200,:3,:15001",100,2021-02-03T10:47:48.090000Z,6825.0,6030.0,0.15,0.06,undecidable,emergent,impulsive,2.691|2.819|0.902,2021.0,eq,1.31,0.297227161194,1.15,0.0400940468214,
201,uw10632168,2005-01-22T11:53:41.580000Z,45.359,-121.703,earthquake,4.379,0.4,md,0.02,0.54,0.294,UW,BH,HOOD,--,45.3223,-121.651,1512.0,"bucket1$201,:3,:15001",100,2005-01-22T11:52:51.580000Z,5316.0,5184.0,0.02,0.02,undecidable,,,12.923|17.375|14.444,2005.0,eq,,,0.4,0.02,
202,uw61731997,2021-06-08T18:39:28.510000Z,45.336,-121.694,earthquake,4.52,0.85,ml,0.072,0.5,0.24,CC,BH,SHRK,--,45.4643,-121.529,1318.7,"bucket1$202,:3,:15001",100,2021-06-08T18:38:38.510000Z,5671.0,5390.0,0.15,0.03,positive,emergent,impulsive,-6.31|-2.2|-7.181,2021.0,eq,0.85,0.0719605533403,0.49,0.197995056521,
203,uw61384166,2018-05-03T16:03:27.730000Z,47.089,-121.868,earthquake,11.38,1.19,ml,0.198,1.27,0.45,UW,BH,LTY,--,47.2545,-120.666,807.0,"bucket1$203,:3,:15001",100,2018-05-03T16:02:37.730000Z,7608.0,6498.0,0.15,0.06,positive,emergent,impulsive,-1.475|4.574|0.937,2018.0,eq,1.19,0.198,0.75,0.27,
204,uw61658667,2020-08-14T09:26:06.510000Z,48.61,-123.107,earthquake,11.98,0.86,ml,0.046,1.64,0.9,CN,HH,PGC,--,48.6498,-123.452,12.0,"bucket1$204,:3,:15001",100,2020-08-14T09:25:16.510000Z,5821.0,5459.0,0.03,0.03,negative,impulsive,impulsive,7.487|9.693|0.293,2020.0,eq,0.86,0.0457940540683,0.25,0.123003732037,
205,uw61777787,2021-10-04T11:15:55.980000Z,45.37,-121.703,earthquake,0.5,0.77,ml,0.326,0.32,0.29,CC,BH,YOCR,--,45.3792,-121.743,1913.7,"bucket1$205,:3,:15001",100,2021-10-04T11:15:05.980000Z,5192.0,5110.0,0.06,0.03,positive,impulsive,impulsive,5.802|4.333|11.788,2021.0,eq,0.77,0.326177694233,0.57,0.704676409188,
206,uw10763123,2009-01-28T05:29:36.210000Z,47.915,-124.249,earthquake,-0.834,2.99,ml,0.167,0.11,0.064,UW,BH,OFR,--,47.9331,-124.396,152.0,"bucket1$206,:3,:15001",100,2009-01-28T05:28:46.210000Z,5394.0,5162.0,0.08,0.02,negative,,,35.532|39.447|34.77,2009.0,eq,2.99,0.167,2.5,0.03,
207,uw61784922,2021-10-30T13:03:23.350000Z,48.141,-121.867,earthquake,15.79,2.84,ml,0.161,0.54,0.27,UW,HH,WRW,--,47.8567,-120.883,1167.0,"bucket1$207,:3,:15001",100,2021-10-30T13:02:33.350000Z,7284.0,6313.0,0.06,0.06,positive,impulsive,impulsive,25.621|28.775|27.857,2021.0,eq,2.84,0.160883912306,2.88,0.414929793026,
208,uw60407411,2012-04-08T13:41:49.030000Z,45.195,-121.69,earthquake,4.939,1.99,ml,0.13,2.01,0.42,TA,BH,H04D,--,44.5234,-122.738,284.0,"bucket1$208,:3,:15001",100,2012-04-08T13:40:59.030000Z,8187.0,6804.0,0.06,0.06,negative,impulsive,impulsive,4.975|8.252|5.538,2012.0,eq,1.99,0.13,1.8,0.221,
209,uw10805428,2010-09-03T16:13:56.700000Z,47.707,-121.91,earthquake,26.978,1.63,ml,0.196,0.34,0.461,UW,BH,TOLT,--,47.6947,-121.689,541.0,"bucket1$209,:3,:15001",100,2010-09-03T16:13:06.700000Z,5878.0,5488.0,0.02,0.02,undecidable,,,13.08|15.566|12.885,2010.0,eq,1.63,0.196,1.5,0.04,
210,uw10772493,2009-04-15T00:47:35.470000Z,46.399,-119.291,earthquake,-0.157,0.66,ml,0.027,0.0,0.014,HW,BH,DDRF,--,46.4911,-119.06,233.0,"bucket1$210,:3,:15001",100,2009-04-15T00:46:45.470000Z,5733.0,5421.0,0.03,0.03,undecidable,,,0.236|1.193|0.984,2009.0,eq,0.66,0.027,1.0,0.04,
211,uw61830366,2022-04-10T18:49:06.850000Z,46.253,-119.544,earthquake,7.09,0.84,ml,0.07,0.23,0.45,US,BH,HAWA,00,46.3925,-119.533,364.0,"bucket1$211,:3,:15001",100,2022-04-10T18:48:16.850000Z,5603.0,5340.0,0.15,0.06,negative,emergent,impulsive,7.993|6.988|6.125,2022.0,eq,0.84,0.0710418698064,0.69,0.171756699515,
212,uw10582533,2003-05-07T15:38:33.050000Z,48.066,-122.528,earthquake,-0.261,1.1,md,0.03,0.14,0.064,UW,BH,GNW,--,47.5641,-122.825,220.0,"bucket1$212,:3,:15001",100,2003-05-07T15:37:43.050000Z,6842.0,6062.0,0.06,0.06,undecidable,,,2.715|0.399|-2.634,2003.0,eq,,,1.1,0.03,
213,uw61699002,2021-01-15T09:12:10.740000Z,47.128,-121.912,earthquake,16.56,0.53,ml,0.157,0.8,0.34,UW,HH,STOR,--,47.1881,-121.989,266.4,"bucket1$213,:3,:15001",100,2021-01-15T09:11:20.740000Z,5580.0,5328.0,0.15,0.06,positive,emergent,impulsive,-0.554|0.651|2.891,2021.0,eq,0.53,0.157168684342,0.5,0.167411474665,
214,uw61267857,2017-05-20T01:21:51.300000Z,47.59,-122.595,earthquake,25.81,1.64,ml,0.146,0.73,0.59,UW,HH,BES5,--,47.5845,-122.569,4.0,"bucket1$214,:3,:15001",100,2017-05-20T01:21:01.300000Z,5785.0,5431.0,0.15,0.06,negative,emergent,impulsive,5.655|13.144|4.389,2017.0,eq,1.64,0.146,1.4,0.291,
215,uw61750462,2021-07-27T03:51:56.670000Z,46.891,-120.646,earthquake,10.8,0.55,ml,0.056,1.95,1.13,UW,HH,BDGR,--,46.8576,-120.298,642.4,"bucket1$215,:3,:15001",100,2021-07-27T03:51:06.670000Z,5894.0,5485.0,0.15,0.06,positive,emergent,impulsive,2.077|9.146|3.565,2021.0,eq,0.55,0.0557706539794,0.4,0.416423493045,
216,uw61585261,2020-03-06T12:47:57.210000Z,46.202,-122.187,earthquake,2.79,0.06,ml,0.087,0.51,0.45,CC,BH,REM,--,46.2002,-122.186,1905.4,"bucket1$216,:3,:15001",100,2020-03-06T12:47:07.210000Z,5157.0,5091.0,0.06,0.06,positive,impulsive,impulsive,0.186|4.544|2.32,2020.0,eq,0.06,0.086541630948,0.54,0.0332313661584,
217,uw61147041,2016-04-28T00:45:15.970000Z,47.66,-121.894,earthquake,13.01,2.02,ml,0.185,0.57,0.24,UW,BH,RATT,--,47.4255,-121.802,442.4,"bucket1$217,:3,:15001",100,2016-04-28T00:44:25.970000Z,5889.0,5492.0,0.06,0.03,negative,impulsive,impulsive,19.545|24.56|16.468,2016.0,eq,2.02,0.185,2.71,0.368,
218,uw61737787,2021-06-22T04:27:16.460000Z,45.342,-121.689,earthquake,4.68,0.58,ml,0.125,0.5,0.33,CC,BH,LSON,--,45.3596,-121.647,1880.0,"bucket1$218,:3,:15001",100,2021-06-22T04:26:26.460000Z,5320.0,5170.0,0.15,0.06,positive,emergent,impulsive,7.467|1.127|12.637,2021.0,eq,0.58,0.124875468308,0.52,0.225991180696,
219,uw60885922,2014-10-06T08:27:15.260000Z,46.965,-121.86,earthquake,5.453,0.64,ml,0.19,0.67,0.28,CC,BH,PANH,--,46.859,-121.643,2086.0,"bucket1$219,:3,:15001",100,2014-10-06T08:26:25.260000Z,5662.0,5362.0,0.06,0.06,undecidable,impulsive,impulsive,8.506|8.213|13.588,2014.0,eq,0.64,0.19,0.32,0.416,
220,uw61585502,2020-03-22T22:11:01.480000Z,42.228,-120.801,earthquake,-1.18,0.99,md,0.212,0.55,0.3,UW,HH,TREE,--,42.7258,-120.893,1887.0,"bucket1$220,:3,:15001",100,2020-03-22T22:10:11.480000Z,6818.0,6041.0,0.06,0.3,undecidable,impulsive,emergent,-1.191|-3.194|-1.527,2020.0,eq,,,0.99,0.212198323547,
221,uw10754233,2009-01-01T14:38:35.610000Z,48.319,-121.282,earthquake,0.398,3.24,ml,0.1,6.77,1.96,UW,BH,LTY,--,47.2545,-120.666,807.0,"bucket1$221,:3,:15001",100,2009-01-01T14:37:45.610000Z,8544.0,7026.0,0.08,0.1,undecidable,,,11.939|17.066|7.45,2009.0,eq,3.24,0.1,2.8,0.11,
222,uw61106662,2016-02-04T02:17:07.040000Z,47.773,-122.851,earthquake,16.79,2.05,ml,0.141,0.53,0.45,TA,BH,D03D,--,47.5347,-123.089,262.0,"bucket1$222,:3,:15001",100,2016-02-04T02:16:17.040000Z,6009.0,5551.0,0.06,0.06,undecidable,impulsive,impulsive,16.33|13.234|15.829,2016.0,eq,2.05,0.141,1.64,0.19,
223,uw61896136,2022-11-25T11:05:00.230000Z,48.6178333333,-119.596,earthquake,6.83,1.31,ml,0.097,2.65,0.51,UW,HH,GOBBL,--,48.6747,-118.73,1182.2,"bucket1$223,:3,:15001",100,2022-11-25T11:04:10.230000Z,6863.0,6090.0,0.06,0.15,undecidable,impulsive,emergent,3.989|3.521|2.033,2022.0,eq,1.31,0.0972043635151,1.47,0.21549598212,
224,uw61699817,2021-01-19T09:27:02.500000Z,45.333,-121.691,earthquake,5.18,0.89,ml,0.092,0.38,0.42,CC,BH,PALM,--,45.3586,-121.705,2590.0,"bucket1$224,:3,:15001",100,2021-01-19T09:26:12.500000Z,5336.0,5200.0,0.15,0.15,undecidable,emergent,emergent,4.282|4.442|2.27,2021.0,eq,0.89,0.0917309745984,0.64,0.0513469545386,
225,uw61534726,2019-07-10T05:40:38.750000Z,45.315,-121.723,earthquake,4.25,0.76,ml,0.288,0.42,0.46,CC,BH,SHRK,--,45.4643,-121.529,1318.7,"bucket1$225,:3,:15001",100,2019-07-10T05:39:48.750000Z,5773.0,5448.0,0.15,0.3,undecidable,emergent,emergent,1.77|1.125|1.959,2019.0,eq,0.76,0.288418505237,0.24,0.0425249699068,
226,uw61076761,2015-09-09T16:39:07.390000Z,41.839,-119.622,earthquake,0.216,1.75,md,0.02,1.02,0.97,US,BH,WVOR,00,42.4339,-118.637,1344.0,"bucket1$226,:3,:15001",100,2015-09-09T16:38:17.390000Z,8023.0,6745.0,0.06,0.06,positive,impulsive,impulsive,0.165|-3.715|-3.261,2015.0,eq,,,1.75,0.02,
227,uw61022647,2015-06-07T15:44:39.520000Z,46.273,-122.073,earthquake,7.515,0.38,ml,0.097,0.56,0.46,CC,BH,STD,--,46.2375,-122.224,1189.0,"bucket1$227,:3,:15001",100,2015-06-07T15:43:49.520000Z,5504.0,5274.0,0.06,0.03,positive,impulsive,impulsive,3.205|4.112|-0.607,2015.0,eq,0.38,0.097,0.31,0.211,
228,uw60491436,2012-12-06T17:19:03.040000Z,46.084,-118.851,earthquake,8.811,1.58,ml,0.2,1.84,0.81,UW,BH,UMAT,--,45.2904,-118.96,1327.8,"bucket1$228,:3,:15001",100,2012-12-06T17:18:13.040000Z,7511.0,6451.0,0.15,0.3,undecidable,emergent,emergent,-2.372|7.669|0.161,2012.0,eq,1.58,0.2,1.63,0.115,
229,uw61733552,2021-06-12T12:16:04.940000Z,45.341,-121.693,earthquake,5.02,1.33,ml,0.149,0.43,0.35,CC,BH,HIYU,--,45.4352,-121.807,1418.0,"bucket1$229,:3,:15001",100,2021-06-12T12:15:14.940000Z,5544.0,5308.0,0.06,0.06,positive,impulsive,impulsive,2.32|15.741|9.747,2021.0,eq,1.33,0.148707739099,0.77,0.124289164664,
230,uw10782478,2009-10-04T20:58:54.780000Z,46.414,-119.275,earthquake,1.405,0.74,ml,0.1,0.28,0.108,HW,BH,DDRF,--,46.4911,-119.06,233.0,"bucket1$230,:3,:15001",100,2009-10-04T20:58:04.780000Z,5660.0,5367.0,0.08,0.08,undecidable,,,3.739|2.923|6.938,2009.0,eq,0.74,0.1,0.2,0.05,
231,uw61163951,2016-06-06T16:09:48.290000Z,47.954,-119.791,earthquake,13.87,0.0,ml,0.0,0.59,0.55,UW,BH,OMAK,--,48.3584,-119.333,687.1,"bucket1$231,:3,:15001",100,2016-06-06T16:08:58.290000Z,6689.0,5951.0,0.06,0.06,positive,impulsive,impulsive,-2.416|-0.891|-0.251,2016.0,eq,0.0,0.0,0.79,0.123,
232,uw61623566,2020-05-09T22:53:46.260000Z,47.301,-122.925,earthquake,25.13,1.64,ml,0.159,0.91,0.31,UW,HH,DOSE,--,47.7172,-122.972,53.3,"bucket1$232,:3,:15001",100,2020-05-09T22:52:56.260000Z,6422.0,5803.0,0.06,0.15,undecidable,impulsive,emergent,27.474|25.957|16.229,2020.0,eq,1.64,0.158561776061,1.53,0.18531464872,
233,uw61721236,2021-03-30T19:22:14.340000Z,46.866,-121.0,earthquake,6.42,0.97,ml,0.22,0.42,0.5,UW,HH,LTY,--,47.2545,-120.666,807.0,"bucket1$233,:3,:15001",100,2021-03-30T19:21:24.340000Z,6390.0,5773.0,0.15,0.15,undecidable,emergent,emergent,6.554|2.255|4.855,2021.0,eq,0.97,0.220446943256,0.9,0.218788444736,
234,uw61614297,2020-05-14T09:35:18.800000Z,46.842,-121.761,earthquake,0.67,0.55,ml,0.192,0.53,0.31,UW,HH,RCM,--,46.8356,-121.733,3085.0,"bucket1$234,:3,:15001",100,2020-05-14T09:34:28.800000Z,5131.0,5071.0,0.03,0.03,positive,impulsive,impulsive,24.175|20.293|17.598,2020.0,eq,0.55,0.192173330911,-0.01,0.181503766849,
235,uw61567337,2020-01-21T03:21:13.690000Z,43.225,-120.507,earthquake,7.42,2.34,ml,0.271,20.41,1.15,CC,BH,CPCO,--,43.722,-121.233,2135.0,"bucket1$235,:3,:15001",100,2020-01-21T03:20:23.690000Z,7378.0,6324.0,0.15,0.06,positive,emergent,impulsive,4.43|1.705|11.079,2020.0,eq,2.34,0.270948331344,2.73,0.378731256201,
236,uw61729691,2021-05-04T02:54:19.230000Z,48.474,-123.421,earthquake,16.76,1.22,ml,0.193,0.5,0.32,CN,HH,PGC,--,48.6498,-123.452,12.0,"bucket1$236,:3,:15001",100,2021-05-04T02:53:29.230000Z,5741.0,5423.0,0.03,0.03,negative,impulsive,impulsive,12.401|7.046|10.645,2021.0,eq,1.22,0.193096399909,0.81,0.219838379687,
237,uw61620356,2020-05-05T07:16:57.730000Z,47.686,-121.398,earthquake,8.89,1.07,ml,0.048,29.43,0.71,UW,HH,LTY,--,47.2545,-120.666,807.0,"bucket1$237,:3,:15001",100,2020-05-05T07:16:07.730000Z,7047.0,6181.0,0.06,0.06,undecidable,impulsive,impulsive,0.813|0.431|1.172,2020.0,eq,1.07,0.0484258663912,1.53,0.134276497182,
238,uw61561596,2019-11-27T11:32:44.340000Z,46.899,-122.013,earthquake,11.74,1.89,ml,0.124,0.34,0.24,CC,BH,PANH,--,46.859,-121.643,2086.0,"bucket1$238,:3,:15001",100,2019-11-27T11:31:54.340000Z,5892.0,5516.0,0.06,0.03,positive,impulsive,impulsive,21.726|16.819|14.68,2019.0,eq,1.89,0.124252758095,1.74,0.255589706637,
239,uw61560231,2019-11-16T22:55:25.650000Z,46.843,-121.958,earthquake,10.62,0.57,ml,0.0235951222969,0.47,0.52,UW,HH,RCM,--,46.8356,-121.733,3085.0,"bucket1$239,:3,:15001",100,2019-11-16T22:54:35.650000Z,5603.0,5346.0,0.15,0.03,positive,emergent,impulsive,-2.261|5.586|0.661,2019.0,eq,0.57,0.0235951222969,0.05,0.241421216024,
240,uw60828342,2014-07-27T21:00:56.460000Z,47.542,-122.833,earthquake,19.021,0.46,ml,0.128,0.81,1.06,TA,BH,D03D,--,47.5347,-123.089,262.0,"bucket1$240,:3,:15001",100,2014-07-27T21:00:06.460000Z,5779.0,5426.0,0.06,0.06,undecidable,impulsive,impulsive,3.593|1.279|1.353,2014.0,eq,0.46,0.128,0.13,0.149,
241,uw61362017,2018-04-11T12:50:41.650000Z,48.294,-123.203,earthquake,40.63,1.47,ml,0.131,0.83,0.64,CN,HH,VGZ,--,48.4131,-123.325,67.0,"bucket1$241,:3,:15001",100,2018-04-11T12:49:51.650000Z,6172.0,5662.0,0.06,0.03,positive,impulsive,impulsive,10.313|10.98|4.396,2018.0,eq,1.47,0.131,1.4,0.292,
242,uw61389347,2018-06-22T11:20:04.120000Z,48.677,-122.47,earthquake,15.85,1.42,ml,0.19,1.66,0.68,CN,HH,SYMB,--,48.5593,-123.799,945.0,"bucket1$242,:3,:15001",100,2018-06-22T11:19:14.120000Z,7713.0,6543.0,0.15,0.15,undecidable,emergent,emergent,4.56|2.675|3.759,2018.0,eq,1.42,0.19,0.88,0.201,
243,uw60919206,2014-11-06T19:32:26.870000Z,42.261,-126.9,earthquake,3.984,2.36,md,0.197,31.61,8.08,TA,BH,L02E,--,42.158,-123.603,454.0,"bucket1$243,:3,:15001",100,2014-11-06T19:31:36.870000Z,11440.0,8448.0,0.15,0.03,positive,emergent,impulsive,1.3|1.768|-1.903,2014.0,eq,,,2.36,0.197,
244,uw61418492,2018-09-12T03:30:14.380000Z,48.66,-123.276,earthquake,24.11,1.28,ml,0.261,1.18,0.77,CN,HH,SNB,--,48.7751,-123.172,402.0,"bucket1$244,:3,:15001",100,2018-09-12T03:29:24.380000Z,5770.0,5452.0,0.06,0.03,positive,impulsive,impulsive,6.744|0.889|-2.47,2018.0,eq,1.28,0.261,0.61,0.185,
245,uw61889586,2022-10-23T16:04:03.930000Z,47.7745,-122.671833333,earthquake,27.17,1.18,ml,0.163,1.12,0.92,UW,HH,DOSE,--,47.7172,-122.972,53.3,"bucket1$245,:3,:15001",100,2022-10-23T16:03:13.930000Z,5972.0,5554.0,0.06,0.06,positive,impulsive,impulsive,4.571|5.668|2.132,2022.0,eq,1.18,0.163057315212,0.62,0.229085337107,
246,uw10653453,2005-06-01T21:25:47.500000Z,47.32,-122.697,earthquake,20.001,1.2,md,0.03,0.69,0.472,UW,BH,GNW,--,47.5641,-122.825,220.0,"bucket1$246,:3,:15001",100,2005-06-01T21:24:57.500000Z,5951.0,5539.0,0.04,0.02,negative,,,4.891|2.944|4.396,2005.0,eq,,,1.2,0.03,
247,uw61677882,2020-09-28T07:30:16.700000Z,47.061,-122.159,earthquake,7.29,1.37,ml,0.211,0.73,0.26,CC,BH,VOIT,--,46.9663,-121.983,977.1,"bucket1$247,:3,:15001",100,2020-09-28T07:29:26.700000Z,5628.0,5334.0,0.06,0.06,positive,impulsive,impulsive,4.443|12.42|1.341,2020.0,eq,1.37,0.211238408152,0.81,0.299612976368,
248,uw61815976,2022-02-11T05:56:35.180000Z,46.202,-122.185,earthquake,4.93,0.33,ml,0.177,0.58,0.32,CC,BH,REM,--,46.2002,-122.186,1905.4,"bucket1$248,:3,:15001",100,2022-02-11T05:55:45.180000Z,5226.0,5146.0,0.06,0.06,positive,impulsive,impulsive,8.699|3.386|7.119,2022.0,eq,0.33,0.177156182924,1.24,0.214323495452,
249,uw60755457,2014-05-05T09:23:54.180000Z,48.592,-123.05,earthquake,12.989,0.47,ml,0.239,1.1,0.43,CN,HH,VGZ,--,48.4131,-123.325,67.0,"bucket1$249,:3,:15001",100,2014-05-05T09:23:04.180000Z,5899.0,5507.0,0.06,0.06,negative,impulsive,impulsive,-6.045|-9.503|2.661,2014.0,eq,0.47,0.239,0.46,0.026,
250,uw61893556,2022-11-09T14:14:05.400000Z,49.039,-120.951,earthquake,9.72,2.17,ml,0.12,31.6,1.16,UW,HH,SHUK,--,48.8528,-121.677,1516.0,"bucket1$250,:3,:15001",100,2022-11-09T14:13:15.400000Z,6645.0,5935.0,0.06,0.03,positive,impulsive,impulsive,8.150|12.324|16.335,2022.0,eq,2.17,0.120341831989,2.11,0.119690055161,
251,uw10715973,2007-03-19T18:12:52.450000Z,47.682,-121.388,earthquake,8.86,1.2,md,0.04,1.63,1.237,UW,BH,LTY,--,47.2545,-120.666,807.0,"bucket1$251,:3,:15001",100,2007-03-19T18:12:02.450000Z,7056.0,6192.0,0.02,0.04,undecidable,,,3.664|-0.316|2.503,2007.0,eq,,,1.2,0.04,
252,uw61213071,2016-09-25T04:27:40.160000Z,47.908,-122.852,earthquake,22.84,1.32,ml,0.163,1.7,1.2,UW,BH,GNW,--,47.5641,-122.825,220.0,"bucket1$252,:3,:15001",100,2016-09-25T04:26:50.160000Z,6239.0,5689.0,0.06,0.03,negative,impulsive,impulsive,4.94|4.584|3.971,2016.0,eq,1.32,0.163,0.8,0.152,
253,uw60997766,2015-04-11T05:14:11.950000Z,44.175,-116.261,earthquake,8.236,1.8,md,,10.68,6.92,US,BH,BMO,00,44.8525,-117.306,1154.0,"bucket1$253,:3,:15001",100,2015-04-11T05:13:21.950000Z,8125.0,6777.0,0.06,0.06,positive,impulsive,impulsive,4.775|10.215|8.57,2015.0,eq,,,1.8,0.0,
