,event_id,source_origin_time,source_latitude_deg,source_longitude_deg,source_type,source_depth_km,preferred_source_magnitude,preferred_source_magnitude_type,preferred_source_magnitude_uncertainty,source_depth_uncertainty_km,source_horizontal_uncertainty_km,station_network_code,station_channel_code,station_code,station_location_code,station_latitude_deg,station_longitude_deg,station_elevation_m,trace_name,trace_sampling_rate_hz,trace_start_time,trace_S_arrival_sample,trace_P_arrival_sample,trace_S_arrival_uncertainty_s,trace_P_arrival_uncertainty_s,trace_P_polarity,trace_S_onset,trace_P_onset,trace_snr_db,year,source_type_pnsn_label,source_local_magnitude,source_local_magnitude_uncertainty,source_duration_magnitude,source_duration_magnitude_uncertainty,source_hand_magnitude
445,uw10750723,2008-04-24T07:20:48.550000Z,45.128,-120.95,earthquake,15.533,2.3,md,0.06,1.41,0.49,TA,BH,H04A,--,44.6837,-122.186,652.0,"bucket1$445,:3,:15001",100,2008-04-24T07:19:58.550000Z,8134.0,6790.0,0.18,0.08,undecidable,,,3.208|6.027|3.41,2008.0,eq,,,2.3,0.06,
446,uw60739476,2014-04-10T04:31:10.160000Z,47.438,-122.708,earthquake,17.611,0.74,ml,0.041,0.78,0.65,UW,BH,DOSE,--,47.7172,-122.972,53.3,"bucket1$446,:3,:15001",100,2014-04-10T04:30:20.160000Z,6146.0,5650.0,0.06,0.06,undecidable,impulsive,impulsive,6.047|1.857|4.595,2014.0,eq,0.74,0.041,0.53,0.164,
447,uw61264632,2017-05-10T09:17:57.340000Z,47.173,-122.194,earthquake,15.46,1.14,ml,0.151,0.68,0.41,UW,HH,STOR,--,47.1881,-121.989,266.4,"bucket1$447,:3,:15001",100,2017-05-10T09:17:07.340000Z,5734.0,5405.0,0.15,0.15,undecidable,emergent,emergent,-1.805|7.244|-1.799,2017.0,eq,1.14,0.151,0.9,0.133,
448,uw10793533,2009-10-27T16:38:55.060000Z,46.517,-122.426,earthquake,18.597,2.16,ml,0.159,0.66,0.255,UW,BH,LON,--,46.7506,-121.81,853.0,"bucket1$448,:3,:15001",100,2009-10-27T16:38:05.060000Z,6553.0,5883.0,0.06,0.02,undecidable,,,4.404|11.209|-1.536,2009.0,eq,2.16,0.159,1.8,0.03,
449,uw10766543,2009-03-23T18:18:23.340000Z,46.395,-119.272,earthquake,-0.098,1.5,ml,0.088,0.01,0.014,US,BH,HAWA,--,46.3925,-119.533,364.0,"bucket1$449,:3,:15001",100,2009-03-23T18:17:33.340000Z,5703.0,5401.0,0.05,0.03,negative,,,3.669|0.858|0.076,2009.0,eq,1.5,0.088,1.3,0.04,
450,uw61568482,2020-01-24T19:17:37.260000Z,46.591,-119.861,earthquake,7.03,1.02,ml,0.137,0.13,0.21,UW,HH,MDW,--,46.613,-119.762,330.0,"bucket1$450,:3,:15001",100,2020-01-24T19:16:47.260000Z,5384.0,5212.0,0.06,0.03,positive,impulsive,impulsive,0.965|19.671|9.19,2020.0,eq,1.02,0.13652240165,1.0,0.184922357926,
451,uw61657512,2020-08-10T15:43:52.940000Z,48.127,-121.611,earthquake,5.93,1.8,ml,0.172,0.92,0.38,UW,HH,DONK,--,48.4238,-122.157,892.8,"bucket1$451,:3,:15001",100,2020-08-10T15:43:02.940000Z,6576.0,5892.0,0.15,0.15,undecidable,emergent,emergent,1.206|0.34|-0.59,2020.0,eq,1.8,0.171734540422,1.82,0.576880742257,
452,uw60700367,2014-02-24T05:15:39.070000Z,48.101,-122.711,earthquake,20.343,0.71,ml,0.042,1.45,1.73,UW,BH,DOSE,--,47.7172,-122.972,53.3,"bucket1$452,:3,:15001",100,2014-02-24T05:14:49.070000Z,6437.0,5804.0,0.15,0.06,undecidable,emergent,impulsive,4.257|6.084|1.235,2014.0,eq,0.71,0.042,0.92,0.147,
453,uw10832333,2011-12-15T07:43:04.700000Z,47.634,-120.385,earthquake,-0.397,0.94,ml,0.146,0.0,0.347,UW,BH,LTY,--,47.2545,-120.666,807.0,"bucket1$453,:3,:15001",100,2011-12-15T07:42:14.700000Z,6363.0,5783.0,0.1,0.05,negative,,,-1.591|2.187|7.851,2011.0,eq,0.94,0.146,1.2,0.04,
454,uw61790042,2021-11-19T01:15:27.670000Z,47.339,-121.998,earthquake,19.45,1.47,ml,0.135,0.5,0.37,UW,HH,STOR,--,47.1881,-121.989,266.4,"bucket1$454,:3,:15001",100,2021-11-19T01:14:37.670000Z,5830.0,5458.0,0.15,0.03,negative,emergent,impulsive,1.713|0.637|-6.148,2021.0,eq,1.47,0.134581510444,1.31,0.225725645882,
455,uw61881757,2022-11-01T16:45:14.260000Z,46.7608333333,-121.589,earthquake,2.94,0.9,ml,0.162,0.68,0.34,UW,HH,FMW,--,46.9419,-121.672,1900.0,"bucket1$455,:3,:15001",100,2022-11-01T16:44:24.260000Z,5641.0,5359.0,0.06,0.06,negative,impulsive,impulsive,-0.939|5.362|-6.975,2022.0,eq,0.9,0.161674172136,0.45,0.206476498005,
456,uw61221842,2016-12-05T06:42:00.930000Z,43.27,-124.441,earthquake,15.79,3.3,ml,0.054,1.59,1.18,UO,HH,LAIR,--,43.1615,-123.931,127.8,"bucket1$456,:3,:15001",100,2016-12-05T06:41:10.930000Z,6308.0,5676.0,0.06,0.03,positive,impulsive,impulsive,27.569|32.867|nan,2016.0,eq,3.3,0.054,3.01,0.286,
457,uw61856402,2022-07-24T10:23:40.340000Z,46.206,-122.181,earthquake,3.12,0.03,ml,0.124,0.7,0.34,CC,BH,UNFR,--,46.2726,-122.292,907.8,"bucket1$457,:3,:15001",100,2022-07-24T10:22:50.340000Z,5408.0,5244.0,0.06,0.15,undecidable,impulsive,emergent,8.972|3.174|3.094,2022.0,eq,0.03,0.123774488729,0.79,0.285203515401,
458,uw10736968,2008-02-13T05:41:18.010000Z,47.674,-120.038,earthquake,5.783,0.9,md,0.04,0.0,0.0,TA,BH,C07A,--,47.6902,-120.061,863.0,"bucket1$458,:3,:15001",100,2008-02-13T05:40:28.010000Z,5212.0,5119.0,0.05,0.04,undecidable,,,-1.365|2.04|1.231,2008.0,eq,,,0.9,0.04,
459,uw61875952,2022-09-30T16:19:11.520000Z,46.894,-121.962,earthquake,9.81,1.64,ml,0.211,0.44,0.31,CC,BH,SIFT,--,46.8668,-121.953,732.0,"bucket1$459,:3,:15001",100,2022-09-30T16:18:21.520000Z,5334.0,5184.0,0.06,0.03,positive,impulsive,impulsive,32.977|25.628|18.984,2022.0,eq,1.64,0.211036983284,1.59,0.358089732355,
460,uw61394496,2018-05-31T02:19:39.450000Z,47.559,-122.664,earthquake,22.38,1.09,ml,0.154,2.51,4.69,UW,BH,GNW,--,47.5641,-122.825,220.0,"bucket1$460,:3,:15001",100,2018-05-31T02:18:49.450000Z,5677.0,5387.0,0.06,0.03,positive,impulsive,impulsive,3.509|7.421|9.738,2018.0,eq,1.09,0.154,0.18,0.01,
461,uw10754368,2009-03-01T05:35:01.850000Z,47.409,-121.984,earthquake,17.924,1.76,ml,0.134,0.55,0.468,UW,HH,ELW,--,47.4941,-121.873,267.0,"bucket1$461,:3,:15001",100,2009-03-01T05:34:11.850000Z,5644.0,5351.0,0.08,0.03,undecidable,,,7.175|-1.28|11.067,2009.0,eq,1.76,0.134,1.7,0.07,
462,uw60397407,2012-04-28T03:20:52.030000Z,47.835,-122.24,earthquake,24.695,1.52,ml,0.17,1.33,0.39,UW,BH,RATT,--,47.4255,-121.802,442.4,"bucket1$462,:3,:15001",100,2012-04-28T03:20:02.030000Z,6706.0,5942.0,0.15,0.03,negative,emergent,impulsive,-1.847|7.429|1.045,2012.0,eq,1.52,0.17,1.1,0.16,
463,uw61082507,2015-10-23T14:41:54.980000Z,47.493,-123.246,earthquake,8.81,0.54,ml,0.141,1.0,0.81,TA,BH,D03D,--,47.5347,-123.089,262.0,"bucket1$463,:3,:15001",100,2015-10-23T14:41:04.980000Z,5467.0,5264.0,0.06,0.03,positive,impulsive,impulsive,-0.061|1.697|-6.582,2015.0,eq,0.54,0.141,0.36,0.189,
464,uw61841656,2022-05-19T04:57:24.760000Z,42.566,-122.584,earthquake,13.13,1.23,ml,0.153,0.89,0.54,CC,BH,WIZ,--,42.9342,-122.149,1884.0,"bucket1$464,:3,:15001",100,2022-05-19T04:56:34.760000Z,6651.0,5959.0,0.15,0.06,positive,emergent,impulsive,-1.536|-6.941|-0.923,2022.0,eq,1.23,0.152517037059,0.99,0.174691049477,
465,uw60944017,2014-12-31T16:01:16.560000Z,46.202,-122.188,earthquake,2.659,0.6,ml,0.114,0.65,0.51,CC,BH,VALT,--,46.2142,-122.189,1681.0,"bucket1$465,:3,:15001",100,2014-12-31T16:00:26.560000Z,5158.0,5082.0,0.06,0.03,negative,impulsive,impulsive,13.481|17.905|17.27,2014.0,eq,0.6,0.114,0.93,0.0,
466,uw61267857,2017-05-20T01:21:51.300000Z,47.59,-122.595,earthquake,25.81,1.64,ml,0.146,0.73,0.59,UW,BH,GNW,--,47.5641,-122.825,220.0,"bucket1$466,:3,:15001",100,2017-05-20T01:21:01.300000Z,5812.0,5460.0,0.15,0.06,positive,emergent,impulsive,35.273|37.469|26.232,2017.0,eq,1.64,0.146,1.4,0.291,
467,uw60555816,2013-07-19T04:42:24.250000Z,47.349,-122.714,earthquake,17.886,0.9,ml,0.139,3.03,0.68,TA,BH,D03D,--,47.5347,-123.089,262.0,"bucket1$467,:3,:15001",100,2013-07-19T04:41:34.250000Z,6135.0,5607.0,0.15,0.06,undecidable,emergent,impulsive,0.074|14.484|5.268,2013.0,eq,0.9,0.139,0.7,0.17,
468,uw10735853,2008-03-04T13:19:21.870000Z,46.465,-122.312,earthquake,17.547,2.3,md,0.03,0.47,0.208,CC,BH,VALT,--,46.2142,-122.189,1681.0,"bucket1$468,:3,:15001",100,2008-03-04T13:18:31.870000Z,6083.0,5591.0,0.06,0.02,positive,,,27.087|27.874|23.957,2008.0,eq,,,2.3,0.03,
469,uw61293761,2017-06-17T23:52:29.400000Z,49.046,-122.188,earthquake,6.87,2.16,ml,0.202,1.46,0.91,CN,BH,PGC,--,48.6498,-123.452,12.0,"bucket1$469,:3,:15001",100,2017-06-17T23:51:39.400000Z,7777.0,6600.0,0.15,0.06,negative,emergent,impulsive,6.811|1.45|4.618,2017.0,eq,2.16,0.202,1.61,0.189,
470,uw10716883,2007-04-13T20:54:17.860000Z,44.665,-116.1,earthquake,8.96,1.6,md,0.09,0.15,0.05,TA,BH,I09A,--,43.9733,-117.741,950.0,"bucket1$470,:3,:15001",100,2007-04-13T20:53:27.860000Z,9289.0,7384.0,0.1,0.15,undecidable,,,-4.037|-4.246|-3.27,2007.0,eq,,,1.6,0.09,
471,uw60479771,2012-10-23T07:20:30.580000Z,46.396,-119.255,earthquake,0.338,0.33,ml,0.121,13.13,0.76,UW,BH,DDRF,--,46.4911,-119.06,233.0,"bucket1$471,:3,:15001",100,2012-10-23T07:19:40.580000Z,5642.0,5369.0,0.06,0.15,undecidable,impulsive,emergent,0.789|1.877|-4.672,2012.0,eq,0.33,0.121,0.21,0.207,
472,uw61534066,2019-07-08T17:41:10.990000Z,46.801,-121.98,earthquake,8.68,0.48,ml,0.121248738265,0.53,1.25,UW,HH,RCM,--,46.8356,-121.733,3085.0,"bucket1$472,:3,:15001",100,2019-07-08T17:40:20.990000Z,5651.0,5382.0,0.06,0.06,undecidable,impulsive,impulsive,2.861|1.118|3.97,2019.0,eq,0.48,0.121248738265,0.37,0.188338895378,
473,uw60913966,2014-10-31T04:47:00.530000Z,47.922,-124.258,earthquake,-0.479,2.62,ml,0.115,1.24,0.54,US,BH,NLWA,00,47.3917,-123.869,640.0,"bucket1$473,:3,:15001",100,2014-10-31T04:46:10.530000Z,7079.0,6144.0,0.15,0.06,negative,emergent,impulsive,17.302|17.333|14.806,2014.0,eq,2.62,0.115,2.34,0.148,
474,uw61890276,2022-10-27T14:37:58.080000Z,48.0351666667,-122.807666667,earthquake,15.53,1.1,ml,0.09,0.59,0.46,UW,HH,HDW,--,47.6483,-123.055,1006.0,"bucket1$474,:3,:15001",100,2022-10-27T14:37:08.080000Z,6427.0,5783.0,0.06,0.06,undecidable,impulsive,emergent,-0.764|4.077|0.852,2022.0,eq,1.1,0.0897866886248,1.09,0.176974948401,
475,uw61677677,2020-09-27T20:26:15.720000Z,48.628,-123.044,earthquake,15.98,1.62,ml,0.258,1.27,0.58,CN,HH,SNB,--,48.7751,-123.172,402.0,"bucket1$475,:3,:15001",100,2020-09-27T20:25:25.720000Z,5724.0,5408.0,0.03,0.03,negative,impulsive,impulsive,14.949|12.594|10.846,2020.0,eq,1.62,0.257576541436,1.28,0.268660594396,
476,uw61264852,2017-05-10T22:47:36.170000Z,47.596,-122.559,earthquake,19.51,1.6,ml,0.245,0.76,0.45,UW,BH,DOSE,--,47.7172,-122.972,53.3,"bucket1$476,:3,:15001",100,2017-05-10T22:46:46.170000Z,6087.0,5602.0,0.06,0.15,undecidable,impulsive,emergent,20.223|18.93|9.331,2017.0,eq,1.6,0.245,0.88,0.174,
477,uw10551588,2002-05-06T11:21:58.040000Z,45.33,-121.688,earthquake,4.164,2.8,md,0.03,1.06,0.631,UO,BH,EUO,--,44.0292,-123.07,160.0,"bucket1$477,:3,:15001",100,2002-05-06T11:21:08.040000Z,10085.0,7913.0,0.1,0.1,undecidable,,,3.433|8.163|-1.897,2002.0,sn,,,2.8,0.03,
478,uw10710633,2007-01-04T08:24:35.470000Z,47.453,-122.371,earthquake,26.153,1.9,md,0.05,0.41,0.073,TA,BH,C04A,--,47.7172,-122.972,53.0,"bucket1$478,:3,:15001",100,2007-01-04T08:23:45.470000Z,6623.0,5911.0,0.06,0.05,undecidable,,,12.984|19.962|12.862,2007.0,eq,,,1.9,0.05,
479,uw61394606,2018-05-31T10:40:43.810000Z,45.33,-121.611,earthquake,5.13,1.07,ml,0.136,1.08,0.6,CC,BH,SHRK,--,45.4643,-121.529,1318.7,"bucket1$479,:3,:15001",100,2018-05-31T10:39:53.810000Z,5592.0,5344.0,0.15,0.15,undecidable,emergent,emergent,4.093|1.979|0.723,2018.0,eq,1.07,0.136,0.59,0.239,
480,uw61802932,2022-01-20T05:24:50.100000Z,46.856,-121.756,earthquake,1.81,0.04,ml,0.165,0.65,0.26,CC,BH,PR05,--,46.8417,-121.949,1553.0,"bucket1$480,:3,:15001",100,2022-01-20T05:24:00.100000Z,5475.0,5265.0,0.06,0.06,positive,impulsive,impulsive,0.728|-3.628|0.984,2022.0,eq,0.04,0.164652308811,-0.32,0.239697306751,
481,uw10826168,2011-08-26T18:25:23.000000Z,46.198,-122.18,earthquake,1.333,0.54,ml,0.207,0.34,0.27,CC,BH,VALT,--,46.2142,-122.189,1681.0,"bucket1$481,:3,:15001",100,2011-08-26T18:24:33.000000Z,5140.0,5070.0,0.04,0.06,undecidable,,impulsive,21.806|21.143|24.972,2011.0,eq,0.54,0.207,0.51,0.47,
482,uw61106682,2016-02-04T04:20:10.780000Z,47.786,-122.853,earthquake,18.28,1.26,ml,0.162,0.98,0.85,UW,BH,DOSE,--,47.7172,-122.972,53.3,"bucket1$482,:3,:15001",100,2016-02-04T04:19:20.780000Z,5618.0,5346.0,0.06,0.06,undecidable,impulsive,impulsive,1.341|10.111|-1.625,2016.0,eq,1.26,0.162,0.43,0.057,
483,uw61698601,2020-10-31T09:55:30.630000Z,47.034,-121.779,earthquake,16.69,0.61,ml,0.243,0.67,0.34,CC,BH,RUSH,--,46.9031,-121.944,1235.0,"bucket1$483,:3,:15001",100,2020-10-31T09:54:40.630000Z,5767.0,5429.0,0.15,0.06,positive,emergent,impulsive,6.451|2.956|0.459,2020.0,eq,0.61,0.243360805808,0.27,0.0888361429002,
484,uw61572162,2020-02-07T06:07:21.420000Z,48.515,-122.373,earthquake,24.84,1.65,ml,0.138,1.65,0.7,UW,HH,DONK,--,48.4238,-122.157,892.8,"bucket1$484,:3,:15001",100,2020-02-07T06:06:31.420000Z,5884.0,5448.0,0.06,0.06,negative,impulsive,impulsive,21.106|12.65|10.852,2020.0,eq,1.65,0.138220497949,1.13,0.144597634352,
485,uw61605152,2020-04-27T17:06:25.550000Z,45.202,-122.196,earthquake,13.3,1.24,ml,0.146,2.77,0.57,UO,HH,MARQ,--,45.0659,-122.669,159.0,"bucket1$485,:3,:15001",100,2020-04-27T17:05:35.550000Z,6274.0,5747.0,0.06,0.15,undecidable,impulsive,emergent,0.857|-10.728|3.154,2020.0,eq,1.24,0.146148532533,1.17,0.169179083557,
486,uw61868146,2022-08-01T08:58:37.720000Z,45.372,-121.81,earthquake,6.23,0.84,ml,0.2,0.64,0.41,CC,BH,LSON,--,45.3596,-121.647,1880.0,"bucket1$486,:3,:15001",100,2022-08-01T08:57:47.720000Z,5533.0,5300.0,0.15,0.06,positive,emergent,impulsive,9.708|13.545|9.307,2022.0,eq,0.84,0.200153362422,0.71,0.218675761995,
487,uw61668242,2020-09-05T05:14:14.650000Z,49.137,-122.318,earthquake,4.21,1.77,ml,0.166,2.23,0.62,UW,HH,LUMI,--,48.7201,-122.706,19.4,"bucket1$487,:3,:15001",100,2020-09-05T05:13:24.650000Z,6575.0,5904.0,0.15,0.15,undecidable,emergent,emergent,5.814|5.017|5.602,2020.0,eq,1.77,0.165636213964,1.64,0.189640567884,
488,uw60425647,2012-07-13T08:15:45.370000Z,49.327,-123.993,earthquake,59.677,2.1,ml,0.218,0.84,0.56,CN,BH,NLLB,--,49.2271,-123.988,199.0,"bucket1$488,:3,:15001",100,2012-07-13T08:14:55.370000Z,6568.0,5890.0,0.15,0.03,negative,emergent,impulsive,15.417|19.149|12.985,2012.0,eq,2.1,0.218,1.83,0.054,
489,uw61683667,2020-10-17T10:12:32.440000Z,46.888,-121.928,earthquake,9.28,0.78,ml,0.148,0.39,0.34,CC,BH,PARA,--,46.7864,-121.742,1651.2,"bucket1$489,:3,:15001",100,2020-10-17T10:11:42.440000Z,5610.0,5359.0,0.06,0.03,negative,impulsive,impulsive,-0.985|8.477|7.769,2020.0,eq,0.78,0.148242534629,0.08,0.252678303208,
490,uw61688746,2020-09-28T23:21:19.300000Z,46.925,-121.552,earthquake,8.56,1.4,ml,0.172,0.61,0.35,CC,BH,CARB,--,46.9883,-122.005,872.5,"bucket1$490,:3,:15001",100,2020-09-28T23:20:29.300000Z,6086.0,5614.0,0.06,0.03,positive,impulsive,impulsive,8.338|2.768|6.188,2020.0,eq,1.4,0.172078507343,0.9,0.273588023813,
491,uw10829333,2011-11-08T02:19:52.720000Z,47.791,-122.715,earthquake,9.219,0.8,ml,0.068,0.45,0.331,UW,BH,DOSE,--,47.7172,-122.972,53.3,"bucket1$491,:3,:15001",100,2011-11-08T02:19:02.720000Z,5677.0,5377.0,0.05,0.03,undecidable,,,7.275|2.099|-0.381,2011.0,eq,0.8,0.068,0.2,0.03,
492,uw61548481,2019-09-06T05:49:51.140000Z,46.847,-121.754,earthquake,0.99,0.8,ml,0.229,0.62,0.28,CC,BH,PR05,--,46.8417,-121.949,1553.0,"bucket1$492,:3,:15001",100,2019-09-06T05:49:01.140000Z,5462.0,5258.0,0.06,0.03,positive,impulsive,impulsive,-1.204|-1.569|1.754,2019.0,eq,0.8,0.229150743074,-0.08,0.22648136407,
493,uw61787602,2021-11-11T04:53:23.900000Z,46.198,-122.185,earthquake,0.44,0.58,ml,0.044,0.3,0.59,CC,BH,VALT,--,46.2142,-122.189,1681.0,"bucket1$493,:3,:15001",100,2021-11-11T04:52:33.900000Z,5104.0,5058.0,0.06,0.06,undecidable,impulsive,impulsive,5.369|5.784|12.364,2021.0,eq,0.58,0.0444496523267,2.58,0.0261871092168,
494,uw60587467,2013-09-07T06:47:10.610000Z,47.849,-123.733,earthquake,32.272,1.33,ml,0.158,1.47,0.54,UW,BH,LRIV,--,48.0575,-123.504,293.8,"bucket1$494,:3,:15001",100,2013-09-07T06:46:20.610000Z,6184.0,5629.0,0.06,0.06,undecidable,impulsive,impulsive,11.662|7.913|1.134,2013.0,eq,1.33,0.158,1.11,0.076,
495,uw10820058,2011-07-06T04:52:00.060000Z,47.77,-122.316,earthquake,25.022,2.31,ml,0.166,0.16,0.108,TA,BH,B05D,--,48.2641,-122.096,153.0,"bucket1$495,:3,:15001",100,2011-07-06T04:51:10.060000Z,6672.0,5952.0,0.08,0.03,negative,,,29.358|22.501|28.669,2011.0,eq,2.31,0.166,2.4,0.03,
496,uw61574897,2020-02-17T23:06:19.820000Z,46.009,-122.513,earthquake,12.58,1.8,ml,0.193,0.87,0.31,UW,HH,FISH,--,45.9306,-123.559,327.0,"bucket1$496,:3,:15001",100,2020-02-17T23:05:29.820000Z,7375.0,6308.0,0.06,0.15,undecidable,impulsive,emergent,-0.579|-0.55|1.91,2020.0,eq,1.8,0.192524513622,2.1,0.444602022978,
497,uw60497847,2013-01-28T10:17:49.510000Z,45.935,-122.413,earthquake,20.122,1.05,ml,0.171,0.92,0.7,CC,BH,STD,--,46.2375,-122.224,1189.0,"bucket1$497,:3,:15001",100,2013-01-28T10:16:59.510000Z,6201.0,5683.0,0.06,0.15,undecidable,impulsive,emergent,1.431|2.375|1.758,2013.0,eq,1.05,0.171,0.67,0.042,
498,uw61513872,2019-03-12T02:40:24.820000Z,46.198,-122.177,earthquake,2.07,0.24,mh,,0.37,0.44,CC,BH,VALT,--,46.2142,-122.189,1681.0,"bucket1$498,:3,:15001",100,2019-03-12T02:39:34.820000Z,5152.0,5070.0,0.06,0.3,undecidable,impulsive,emergent,2.373|8.584|9.173,2019.0,eq,,,0.58,0.00448139171061,0.24
499,uw61893561,2022-11-09T14:26:39.720000Z,47.4436666667,-121.7665,earthquake,22.51,1.5,ml,0.136,0.3,0.51,UW,HH,RATT,--,47.4255,-121.802,442.4,"bucket1$499,:3,:15001",100,2022-11-09T14:25:49.720000Z,5653.0,5358.0,0.06,0.03,positive,impulsive,impulsive,33.626|31.567|27.798,2022.0,eq,1.5,0.136299133189,1.26,0.226554270951,
500,uw60747081,2014-04-23T20:32:24.780000Z,47.942,-122.005,explosion,-0.305,1.29,ml,0.155,31.61,2.11,TA,BH,D03D,--,47.5347,-123.089,262.0,"bucket2$0,:3,:15001",100,2014-04-23T20:31:34.780000Z,7681.0,6569.0,0.15,0.15,undecidable,emergent,emergent,-2.027|-2.657|-3.5,2014.0,px,1.29,0.155,1.31,0.203,
501,uw61166677,2016-07-15T21:12:09.490000Z,49.431,-120.539,explosion,-0.53,1.65,md,0.128,31.61,1.98,CN,BH,PNT,--,49.3224,-119.625,531.0,"bucket2$1,:3,:15001",100,2016-07-15T21:11:19.490000Z,6991.0,6156.0,0.15,0.06,undecidable,emergent,impulsive,15.63|9.587|6.477,2016.0,px,,,1.65,0.128,
502,uw60067808,2014-08-01T16:03:56.200000Z,45.578,-122.517,explosion,-0.377,1.2,ml,0.047,31.61,0.68,UW,HH,YACT,--,45.9325,-122.419,211.2,"bucket2$2,:3,:15001",100,2014-08-01T16:03:06.200000Z,6286.0,5672.0,0.15,0.15,undecidable,emergent,emergent,0.784|1.6|-5.706,2014.0,px,1.2,0.047,1.06,0.205,
503,uw60793971,2014-05-28T20:56:03.080000Z,48.012,-117.342,explosion,-0.618,1.58,ml,0.164,31.61,1.21,UW,BH,DAVN,--,47.8006,-118.274,482.6,"bucket2$3,:3,:15001",100,2014-05-28T20:55:13.080000Z,7181.0,6177.0,0.15,0.15,undecidable,emergent,emergent,7.705|10.948|7.827,2014.0,px,1.58,0.164,0.5,0.0,
504,uw61027247,2015-06-15T16:50:16.700000Z,44.218,-122.861,explosion,-0.678,1.08,ml,0.136,31.61,0.57,UO,BH,BUCK,--,44.1973,-122.986,964.0,"bucket2$4,:3,:15001",100,2015-06-15T16:49:26.700000Z,5551.0,5313.0,0.15,0.15,undecidable,emergent,emergent,11.448|21.471|10.125,2015.0,px,1.08,0.136,1.41,0.131,
505,uw61409362,2018-08-17T20:54:27.450000Z,47.473,-120.639,explosion,-1.1,1.01,ml,0.075,31.61,0.73,UW,BH,LTY,--,47.2545,-120.666,807.0,"bucket2$5,:3,:15001",100,2018-08-17T20:53:37.450000Z,5780.0,5408.0,0.06,0.06,positive,impulsive,impulsive,12.664|2.26|13.671,2018.0,px,1.01,0.075,0.87,0.257,
506,uw61776037,2021-09-25T21:09:08.790000Z,49.412,-120.508,explosion,-0.37,1.85,ml,0.094,31.61,2.66,CN,HH,PNT,--,49.3224,-119.625,531.0,"bucket2$6,:3,:15001",100,2021-09-25T21:08:18.790000Z,6948.0,6119.0,0.06,0.06,positive,impulsive,impulsive,14.499|17.661|8.302,2021.0,px,1.85,0.0942220727149,1.77,0.0298965853278,
507,uw61029696,2015-06-01T22:26:30.330000Z,43.866,-122.961,explosion,-0.412,1.28,ml,0.166,31.61,0.92,TA,BH,I04A,--,43.7941,-122.411,731.0,"bucket2$7,:3,:15001",100,2015-06-01T22:25:40.330000Z,6577.0,5937.0,0.15,0.15,undecidable,emergent,emergent,3.001|3.106|7.399,2015.0,px,1.28,0.166,0.86,0.062,
508,uw60452652,2012-09-16T21:16:56.300000Z,49.453,-120.511,explosion,-0.54,1.93,ml,0.173,31.61,3.53,CN,BH,PNT,--,49.3224,-119.625,531.0,"bucket2$8,:3,:15001",100,2012-09-16T21:16:06.300000Z,7005.0,6149.0,0.15,0.03,positive,emergent,impulsive,13.742|12.973|7.131,2012.0,px,1.93,0.173,2.29,0.11,
