,event_id,source_origin_time,source_latitude_deg,source_longitude_deg,source_type,source_depth_km,preferred_source_magnitude,preferred_source_magnitude_type,preferred_source_magnitude_uncertainty,source_depth_uncertainty_km,source_horizontal_uncertainty_km,station_network_code,station_channel_code,station_code,station_location_code,station_latitude_deg,station_longitude_deg,station_elevation_m,trace_name,trace_sampling_rate_hz,trace_start_time,trace_S_arrival_sample,trace_P_arrival_sample,trace_S_arrival_uncertainty_s,trace_P_arrival_uncertainty_s,trace_P_polarity,trace_S_onset,trace_P_onset,trace_snr_db,year,source_type_pnsn_label,source_local_magnitude,source_local_magnitude_uncertainty,source_duration_magnitude,source_duration_magnitude_uncertainty,source_hand_magnitude
254,uw61382191,2018-04-26T22:39:23.760000Z,46.599,-119.804,earthquake,7.73,1.49,ml,0.157,0.15,0.22,US,BH,HAWA,00,46.3925,-119.533,364.0,"bucket1$254,:3,:15001",100,2018-04-26T22:38:33.760000Z,6069.0,5604.0,0.3,0.06,negative,emergent,impulsive,4.683|9.524|7.488,2018.0,eq,1.49,0.157,1.49,0.181,
255,uw61372096,2018-03-09T14:07:29.570000Z,46.609,-119.846,earthquake,6.59,1.03,ml,0.123,0.18,0.33,UW,HH,CCRK,--,46.5585,-119.855,561.0,"bucket1$255,:3,:15001",100,2018-03-09T14:06:39.570000Z,5321.0,5179.0,0.06,0.06,negative,impulsive,impulsive,15.551|25.192|17.957,2018.0,eq,1.03,0.123,0.88,0.194,
256,uw61785457,2021-11-01T13:40:02.020000Z,43.699,-121.262,earthquake,4.8,0.4,ml,0.156,1.09,0.53,CC,BH,SWNB,--,43.6727,-121.355,1569.0,"bucket1$256,:3,:15001",100,2021-11-01T13:39:12.020000Z,5412.0,5223.0,0.15,0.3,undecidable,emergent,emergent,1.565|3.122|-0.529,2021.0,lf,0.4,0.155892310205,-0.31,0.192327834348,
257,uw10581223,2003-04-17T01:38:02.960000Z,47.688,-122.097,earthquake,13.608,2.7,md,0.03,0.82,0.63,UW,HH,SEA,--,47.6542,-122.309,30.0,"bucket1$257,:3,:15001",100,2003-04-17T01:37:12.960000Z,5772.0,5363.0,0.03,0.03,undecidable,,,16.397|17.088|13.469,2003.0,eq,,,2.7,0.03,
258,uw10732348,2007-07-28T04:23:59.080000Z,47.605,-122.716,earthquake,14.024,0.0,md,0.05,0.25,0.311,TA,BH,C04A,--,47.7172,-122.972,53.0,"bucket1$258,:3,:15001",100,2007-07-28T04:23:09.080000Z,5780.0,5435.0,0.05,0.05,undecidable,,,20.744|16.483|15.736,2007.0,eq,,,0.0,0.05,
259,uw61803181,2021-12-06T10:26:30.390000Z,47.262,-123.997,earthquake,33.68,1.73,ml,0.141,0.67,0.46,UW,HH,MOODY,--,47.2089,-124.014,33.2,"bucket1$259,:3,:15001",100,2021-12-06T10:25:40.390000Z,5913.0,5517.0,0.06,0.03,negative,impulsive,impulsive,18.124|13.664|8.774,2021.0,eq,1.73,0.14119968809,1.26,0.137771584956,
260,uw61748542,2021-07-22T10:16:26.860000Z,44.596,-122.771,earthquake,19.01,1.4,ml,0.112,0.66,0.34,UO,HH,PERY,--,45.0409,-123.26,54.2,"bucket1$260,:3,:15001",100,2021-07-22T10:15:36.860000Z,6983.0,6098.0,0.06,0.06,negative,impulsive,impulsive,2.724|3.681|1.967,2021.0,eq,1.4,0.112309614821,1.42,0.214324761096,
261,uw60968906,2015-02-15T15:53:52.980000Z,49.693,-123.557,earthquake,8.123,2.04,ml,0.109,1.93,0.59,CN,BH,NLLB,--,49.2271,-123.988,199.0,"bucket1$261,:3,:15001",100,2015-02-15T15:53:02.980000Z,6733.0,5990.0,0.15,0.03,positive,emergent,impulsive,5.938|3.68|0.584,2015.0,eq,2.04,0.109,1.68,0.181,
262,uw10726928,2007-07-19T05:42:55.360000Z,48.289,-121.687,earthquake,-0.582,1.0,md,0.05,0.16,0.05,TA,BH,B06A,--,48.5183,-121.484,75.0,"bucket1$262,:3,:15001",100,2007-07-19T05:42:05.360000Z,5907.0,5519.0,0.04,0.04,undecidable,,,7.289|6.668|3.739,2007.0,eq,,,1.0,0.05,
263,uw10825238,2011-08-23T23:04:44.500000Z,47.572,-123.407,earthquake,3.356,1.91,ml,0.079,8.45,0.867,TA,BH,D03D,--,47.5347,-123.089,262.0,"bucket1$263,:3,:15001",100,2011-08-23T23:03:54.500000Z,5715.0,5373.0,0.06,0.05,undecidable,,,21.599|31.065|11.484,2011.0,eq,1.91,0.079,1.4,0.04,
264,uw60945492,2015-01-07T03:54:59.630000Z,46.2,-122.183,earthquake,2.232,0.29,ml,0.083,0.51,0.29,CC,BH,SWF2,--,46.1783,-122.217,1548.0,"bucket1$264,:3,:15001",100,2015-01-07T03:54:09.630000Z,5199.0,5109.0,0.06,0.06,undecidable,impulsive,impulsive,11.503|10.309|6.219,2015.0,eq,0.29,0.083,0.93,0.003,
265,uw10708083,2006-12-30T11:49:55.320000Z,48.811,-118.613,earthquake,-0.549,1.8,md,0.08,99.9,1.448,TA,BH,B09A,--,48.4226,-118.149,630.0,"bucket1$265,:3,:15001",100,2006-12-30T11:49:05.320000Z,6548.0,5926.0,0.05,0.1,undecidable,,,2.273|0.308|-2.263,2006.0,eq,,,1.8,0.08,
266,uw61776882,2021-09-29T19:24:06.730000Z,47.037,-121.723,earthquake,15.02,1.0,ml,0.171263996085,0.76,0.53,CC,BH,PARA,--,46.7864,-121.742,1651.2,"bucket1$266,:3,:15001",100,2021-09-29T19:23:16.730000Z,5928.0,5524.0,0.06,0.03,positive,impulsive,impulsive,-2.4|-3.861|2.792,2021.0,eq,1.0,0.171263996085,0.68,0.193723708579,
267,uw10671268,2005-04-22T12:55:41.100000Z,48.602,-123.437,earthquake,44.848,0.9,md,0.03,1.92,2.19,TA,BH,A04A,--,48.7197,-122.707,23.0,"bucket1$267,:3,:15001",100,2005-04-22T12:54:51.100000Z,6893.0,6068.0,0.03,0.05,undecidable,,,1.57|5.925|3.809,2005.0,eq,,,0.9,0.03,
268,uw10727398,2007-10-19T05:42:20.180000Z,47.831,-122.831,earthquake,14.375,0.3,md,0.03,1.6,1.957,TA,BH,C04A,--,47.7172,-122.972,53.0,"bucket1$268,:3,:15001",100,2007-10-19T05:41:30.180000Z,5632.0,5350.0,0.04,0.04,undecidable,,,6.392|6.651|6.067,2007.0,eq,,,0.3,0.03,
269,uw60707112,2014-03-04T04:16:03.570000Z,48.24,-124.886,earthquake,0.012,1.64,ml,0.063,1.48,1.32,UW,BH,FORK,--,47.9475,-124.566,44.9,"bucket1$269,:3,:15001",100,2014-03-04T04:15:13.570000Z,6420.0,5716.0,0.15,0.06,undecidable,emergent,impulsive,-5.689|1.859|-7.404,2014.0,eq,1.64,0.063,0.81,0.14,
270,uw10681683,2005-08-16T20:41:25.720000Z,47.985,-121.897,earthquake,14.299,1.2,md,0.02,0.67,0.241,UW,BH,GNW,--,47.5641,-122.825,220.0,"bucket1$270,:3,:15001",100,2005-08-16T20:40:35.720000Z,7348.0,6329.0,0.02,0.02,positive,,,-1.061|-2.186|-0.391,2005.0,eq,,,1.2,0.02,
271,uw10696378,2006-08-04T01:06:10.510000Z,47.225,-118.963,earthquake,-0.52,0.4,md,0.05,0.46,0.344,US,BH,HAWA,--,46.3925,-119.533,364.0,"bucket1$271,:3,:15001",100,2006-08-04T01:05:20.510000Z,8077.0,6684.0,0.03,0.08,undecidable,,,4.115|-1.022|-10.335,2006.0,eq,,,0.4,0.05,
272,uw61426472,2018-10-05T08:09:25.390000Z,46.409,-119.259,earthquake,0.29,2.33,ml,0.136,0.64,0.16,UW,HH,DDRF,--,46.4911,-119.06,233.0,"bucket1$272,:3,:15001",100,2018-10-05T08:08:35.390000Z,5629.0,5348.0,0.15,0.06,positive,emergent,impulsive,45.443|43.211|38.21,2018.0,eq,2.33,0.136,2.83,0.326,
273,uw10580118,2003-03-17T06:56:00.360000Z,48.533,-122.369,earthquake,17.413,1.5,md,0.03,1.19,0.698,UW,BH,GNW,--,47.5641,-122.825,220.0,"bucket1$273,:3,:15001",100,2003-03-17T06:55:10.360000Z,8036.0,6698.0,0.06,0.04,undecidable,,,-1.338|-4.192|-1.086,2003.0,eq,,,1.5,0.03,
274,uw10797518,2010-04-17T05:32:20.120000Z,48.62,-123.091,earthquake,17.632,1.52,ml,0.186,0.95,0.524,CN,HH,VGZ,--,48.4131,-123.325,67.0,"bucket1$274,:3,:15001",100,2010-04-17T05:31:30.120000Z,5854.0,5499.0,0.03,0.02,undecidable,,,8.289|3.388|5.669,2010.0,eq,1.52,0.186,1.3,0.03,
275,uw60868626,2014-09-03T13:58:18.180000Z,47.743,-122.869,earthquake,17.796,0.92,ml,0.086,0.69,0.86,UW,BH,GNW,--,47.5641,-122.825,220.0,"bucket1$275,:3,:15001",100,2014-09-03T13:57:28.180000Z,5752.0,5417.0,0.06,0.06,undecidable,impulsive,impulsive,-1.62|-7.499|-2.314,2014.0,eq,0.92,0.086,0.39,0.109,
276,uw61562241,2019-11-30T13:38:20.990000Z,46.897,-122.028,earthquake,12.36,0.47,ml,0.032,0.41,0.43,CC,BH,PR03,--,46.9034,-122.033,523.0,"bucket1$276,:3,:15001",100,2019-11-30T13:37:30.990000Z,5407.0,5219.0,0.06,0.15,undecidable,impulsive,emergent,4.841|1.058|2.187,2019.0,eq,0.47,0.0468031352833,0.16,0.282906099364,
277,uw60637186,2013-11-24T16:52:13.020000Z,47.632,-122.212,earthquake,25.76,1.36,ml,0.098,1.45,0.45,UW,HH,STOR,--,47.1881,-121.989,266.4,"bucket1$277,:3,:15001",100,2013-11-24T16:51:23.020000Z,6695.0,6014.0,0.15,0.06,undecidable,emergent,impulsive,-1.565|-0.943|1.384,2013.0,eq,1.36,0.098,1.03,0.098,
278,uw10761688,2009-02-23T01:12:17.490000Z,46.405,-119.282,earthquake,0.655,0.69,ml,0.102,0.89,0.227,HW,BH,DDRF,--,46.4911,-119.06,233.0,"bucket1$278,:3,:15001",100,2009-02-23T01:11:27.490000Z,5694.0,5386.0,0.15,0.08,undecidable,,,2.604|8.657|-1.078,2009.0,eq,0.69,0.102,0.8,0.08,
279,uw10809903,2010-10-31T21:27:43.160000Z,48.924,-122.076,earthquake,7.123,2.42,ml,0.198,1.19,0.882,CN,BH,PGC,--,48.6498,-123.452,12.0,"bucket1$279,:3,:15001",100,2010-10-31T21:26:53.160000Z,7827.0,6612.0,0.05,0.03,negative,,,1.914|3.05|3.01,2010.0,eq,2.42,0.198,2.1,0.04,
280,uw61700417,2021-01-22T13:51:54.280000Z,46.859,-121.758,earthquake,0.9,0.06,ml,0.233,0.57,0.23,CC,BH,PARA,--,46.7864,-121.742,1651.2,"bucket1$280,:3,:15001",100,2021-01-22T13:51:04.280000Z,5272.0,5148.0,0.06,0.06,positive,impulsive,impulsive,1.534|0.738|0.432,2021.0,eq,0.06,0.23328485954,-0.56,0.383472767348,
281,uw10721603,2007-07-03T14:54:37.090000Z,42.078,-119.954,earthquake,1.117,1.3,md,0.07,26.39,8.435,TA,BH,L07A,--,42.0187,-119.34,1816.0,"bucket1$281,:3,:15001",100,2007-07-03T14:53:47.090000Z,6584.0,5886.0,0.08,0.08,positive,,,10.75|14.124|1.533,2007.0,eq,,,1.3,0.07,
282,uw61586006,2020-03-09T04:26:43.980000Z,46.264,-122.051,earthquake,8.71,0.21,ml,0.241,0.81,0.41,CC,BH,STD,--,46.2375,-122.224,1189.0,"bucket1$282,:3,:15001",100,2020-03-09T04:25:53.980000Z,5539.0,5310.0,0.06,0.3,undecidable,impulsive,emergent,9.093|14.65|-0.169,2020.0,eq,0.21,0.241262231613,0.39,0.303650115848,
283,uw61898746,2022-12-16T09:47:13.880000Z,46.6126666667,-121.763166667,earthquake,12.3,2.36,ml,0.232,0.98,0.3,UW,HH,RCM,--,46.8356,-121.733,3085.0,"bucket1$283,:3,:15001",100,2022-12-16T09:46:23.880000Z,5842.0,5479.0,0.06,0.03,negative,impulsive,impulsive,33.203|28.492|32.340,2022.0,eq,2.36,0.232421229836,2.27,0.193567871887,
284,uw61786062,2021-11-04T08:51:40.170000Z,43.999,-122.653,earthquake,8.37,1.14,ml,0.229,1.5,0.39,UO,HH,BUCK,--,44.1973,-122.986,964.0,"bucket1$284,:3,:15001",100,2021-11-04T08:50:50.170000Z,6159.0,5675.0,0.06,0.15,undecidable,impulsive,emergent,-5.08|2.96|2.05,2021.0,eq,1.14,0.228862285289,0.92,0.181350913835,
285,uw60527587,2013-05-09T22:54:24.900000Z,47.617,-122.171,earthquake,24.603,1.35,ml,0.12,31.61,0.51,UW,BH,RATT,--,47.4255,-121.802,442.4,"bucket1$285,:3,:15001",100,2013-05-09T22:53:34.900000Z,6156.0,5626.0,0.15,0.06,undecidable,emergent,impulsive,6.728|6.528|10.132,2013.0,eq,1.35,0.12,0.99,0.004,
286,uw61799732,2021-12-29T07:46:07.770000Z,46.441,-122.313,earthquake,15.13,0.45,ml,0.122,1.5,0.65,CC,BH,SIFT,--,46.8668,-121.953,732.0,"bucket1$286,:3,:15001",100,2021-12-29T07:45:17.770000Z,6631.0,5928.0,0.06,0.06,undecidable,impulsive,impulsive,2.55|-2.401|-1.964,2021.0,eq,0.45,0.121845895535,0.42,0.148782777518,
287,uw60840182,2014-08-11T07:31:55.770000Z,49.134,-122.448,earthquake,8.297,1.81,ml,0.371,23.14,1.33,UW,BH,SHUK,--,48.8528,-121.677,1516.0,"bucket1$287,:3,:15001",100,2014-08-11T07:31:05.770000Z,6819.0,6057.0,0.03,0.06,positive,impulsive,impulsive,12.699|18.935|2.028,2014.0,eq,1.81,0.371,1.57,0.136,
288,uw60460856,2012-09-03T16:32:35.630000Z,47.791,-122.825,earthquake,20.362,0.76,ml,0.261,1.07,0.86,TA,BH,D03D,--,47.5347,-123.089,262.0,"bucket1$288,:3,:15001",100,2012-09-03T16:31:45.630000Z,6111.0,5617.0,0.06,0.06,positive,impulsive,impulsive,7.676|5.086|2.111,2012.0,eq,0.76,0.261,0.5,0.057,
289,uw10718198,2007-05-21T13:43:21.030000Z,45.114,-120.92,earthquake,12.872,1.6,md,0.04,0.76,0.339,TA,BH,G06A,--,45.2357,-120.635,780.0,"bucket1$289,:3,:15001",100,2007-05-21T13:42:31.030000Z,5932.0,5535.0,0.03,0.07,undecidable,,,5.201|1.234|2.13,2007.0,eq,,,1.6,0.04,
290,uw61855762,2022-07-22T04:45:35.160000Z,45.001,-123.848,earthquake,44.59,2.11,ml,0.121474741788,0.73,0.42,UO,HH,LOKI,--,45.0621,-123.107,159.3,"bucket1$290,:3,:15001",100,2022-07-22T04:44:45.160000Z,7088.0,6186.0,0.15,0.03,negative,emergent,impulsive,6.729|8.104|0.874,2022.0,eq,2.11,0.121474741788,1.83,0.228796811655,
291,uw61881081,2022-09-17T09:10:30.000000Z,48.835,-122.474,earthquake,19.52,2.16,ml,0.223,0.51,0.32,UW,HH,OLGA,--,48.6049,-122.803,21.9,"bucket1$291,:3,:15001",100,2022-09-17T09:09:40.000000Z,6128.0,5629.0,0.06,0.03,positive,impulsive,impulsive,26.372|31.708|17.554,2022.0,eq,2.16,0.222711636439,1.9,0.344114198148,
292,uw10825233,2011-07-20T14:12:37.790000Z,47.749,-122.555,earthquake,25.803,2.93,ml,0.179,0.2,0.081,UW,BH,LRIV,--,48.0575,-123.504,293.8,"bucket1$292,:3,:15001",100,2011-07-20T14:11:47.790000Z,7280.0,6272.0,0.13,0.03,positive,,,20.574|24.364|14.59,2011.0,eq,2.93,0.179,2.8,0.03,
293,uw61248606,2017-02-05T15:42:03.640000Z,46.672,-122.379,earthquake,9.69,0.96,ml,0.056,18.5,0.72,UW,BH,LON,--,46.7506,-121.81,853.0,"bucket1$293,:3,:15001",100,2017-02-05T15:41:13.640000Z,6309.0,5753.0,0.06,0.06,undecidable,impulsive,impulsive,0.355|0.94|-1.193,2017.0,eq,0.96,0.056,0.86,0.058,
294,uw60952452,2015-02-02T04:20:03.260000Z,44.142,-122.901,earthquake,10.003,1.01,ml,0.075,0.91,0.42,UO,BH,BUCK,--,44.1973,-122.986,964.0,"bucket1$294,:3,:15001",100,2015-02-02T04:19:13.260000Z,5465.0,5277.0,0.06,0.03,negative,impulsive,impulsive,3.02|12.625|1.821,2015.0,eq,1.01,0.075,0.91,0.218,
295,uw60603087,2013-10-02T14:26:45.370000Z,48.032,-122.632,earthquake,57.233,2.65,ml,0.127,0.9,0.42,UW,BH,RATT,--,47.4255,-121.802,442.4,"bucket1$295,:3,:15001",100,2013-10-02T14:25:55.370000Z,7779.0,6569.0,0.15,0.06,negative,emergent,impulsive,16.405|25.776|14.539,2013.0,eq,2.65,0.127,2.33,0.311,
296,uw61710656,2021-01-24T13:02:22.800000Z,46.816,-121.921,earthquake,9.96,0.96,ml,0.1,0.37,0.31,UW,HH,RATT,--,47.4255,-121.802,442.4,"bucket1$296,:3,:15001",100,2021-01-24T13:01:32.800000Z,6981.0,6113.0,0.15,0.06,negative,emergent,impulsive,2.961|-4.268|-5.97,2021.0,eq,0.96,0.100451402857,0.66,0.277704380648,
297,uw61585926,2020-03-08T23:04:12.130000Z,46.792,-121.929,earthquake,3.35,0.73,ml,0.132923917129,31.61,0.55,UW,HH,RATT,--,47.4255,-121.802,442.4,"bucket1$297,:3,:15001",100,2020-03-08T23:03:22.130000Z,7098.0,6212.0,0.15,0.15,undecidable,emergent,emergent,5.359|2.652|1.021,2020.0,eq,0.73,0.132923917129,0.18,0.112874142268,
298,uw61389266,2018-05-15T22:27:09.160000Z,46.247,-122.095,earthquake,5.94,0.42,md,0.029,1.34,0.53,CC,BH,STD,--,46.2375,-122.224,1189.0,"bucket1$298,:3,:15001",100,2018-05-15T22:26:19.160000Z,5411.0,5226.0,0.06,0.06,undecidable,impulsive,impulsive,1.032|5.942|3.677,2018.0,eq,,,0.42,0.029,
299,uw61707451,2020-12-30T05:04:42.700000Z,46.854,-121.762,earthquake,1.49,0.42,ml,0.228,0.48,0.26,CC,BH,PANH,--,46.859,-121.643,2086.0,"bucket1$299,:3,:15001",100,2020-12-30T05:03:52.700000Z,5320.0,5166.0,0.06,0.06,positive,impulsive,impulsive,-1.484|-11.757|-5.839,2020.0,eq,0.42,0.22848951524,-0.17,0.16237733719,
300,uw60966266,2015-02-11T02:56:50.650000Z,47.455,-122.917,earthquake,15.531,1.03,ml,0.172,1.03,0.76,TA,BH,D03D,--,47.5347,-123.089,262.0,"bucket1$300,:3,:15001",100,2015-02-11T02:56:00.650000Z,5630.0,5355.0,0.06,0.06,undecidable,impulsive,impulsive,5.364|-0.369|-5.197,2015.0,eq,1.03,0.172,0.56,0.2,
301,uw60778891,2014-05-17T14:13:31.510000Z,49.134,-122.148,earthquake,9.99,2.04,ml,0.232,1.62,0.74,UW,BH,LRIV,--,48.0575,-123.504,293.8,"bucket1$301,:3,:15001",100,2014-05-17T14:12:41.510000Z,9205.0,7406.0,0.15,0.03,positive,emergent,impulsive,8.17|4.183|-0.274,2014.0,eq,2.04,0.232,1.76,0.147,
302,uw60557192,2013-07-23T00:45:41.940000Z,48.006,-122.234,earthquake,25.275,1.31,ml,0.231,1.23,0.66,TA,BH,B05D,--,48.2641,-122.096,153.0,"bucket1$302,:3,:15001",100,2013-07-23T00:44:51.940000Z,6068.0,5616.0,0.15,0.06,positive,emergent,impulsive,11.635|7.006|1.104,2013.0,eq,1.31,0.231,0.89,0.11,
303,uw61835131,2022-04-29T11:26:55.510000Z,46.167,-119.842,earthquake,25.02,0.97,ml,0.13,0.9,0.35,US,BH,HAWA,00,46.3925,-119.533,364.0,"bucket1$303,:3,:15001",100,2022-04-29T11:26:05.510000Z,6267.0,5717.0,0.06,0.06,negative,impulsive,impulsive,9.040|12.215|5.747,2022.0,eq,0.97,0.118154548275,0.9,0.125913538758,
304,uw61683302,2020-10-16T01:54:36.780000Z,48.31,-123.27,earthquake,22.14,1.12,ml,0.036,1.23,0.71,CN,HH,PTRF,--,48.5442,-124.413,164.0,"bucket1$304,:3,:15001",100,2020-10-16T01:53:46.780000Z,7455.0,6367.0,0.15,0.3,undecidable,emergent,emergent,0.274|-0.074|1.925,2020.0,eq,1.12,0.0356285982675,0.81,0.153655802306,
305,uw61635071,2020-06-01T08:50:29.640000Z,48.375,-122.248,earthquake,12.39,1.0,ml,0.365,1.08,0.5,UW,HH,DONK,--,48.4238,-122.157,892.8,"bucket1$305,:3,:15001",100,2020-06-01T08:49:39.640000Z,5584.0,5248.0,0.15,0.03,positive,emergent,impulsive,6.687|1.559|5.123,2020.0,eq,1.0,0.365220122705,1.06,0.0532234566802,
306,uw61862841,2022-07-17T09:57:12.740000Z,48.301,-121.841,earthquake,1.23,2.0,ml,0.145135182917,1.13,0.5,UW,HH,WRW,--,47.8567,-120.883,1167.0,"bucket1$306,:3,:15001",100,2022-07-17T09:56:22.740000Z,7416.0,6406.0,0.06,0.03,negative,impulsive,impulsive,11.804|12.661|12.135,2022.0,eq,2.0,0.145135182917,1.98,0.391543615236,
307,uw61512166,2019-02-20T07:23:44.890000Z,47.599,-122.584,earthquake,23.33,2.33,ml,0.199998725911,0.7,0.38,UW,HH,STOR,--,47.1881,-121.989,266.4,"bucket1$307,:3,:15001",100,2019-02-20T07:22:54.890000Z,6947.0,6098.0,0.06,0.06,negative,impulsive,impulsive,1.48|6.3|5.126,2019.0,eq,2.33,0.199998725911,2.1,0.216236244146,
308,uw61803772,2022-01-25T07:48:29.390000Z,48.849,-122.358,earthquake,12.19,1.53,ml,0.103273609296,0.8,0.44,UW,HH,DONK,--,48.4238,-122.157,892.8,"bucket1$308,:3,:15001",100,2022-01-25T07:47:39.390000Z,6489.0,5819.0,0.06,0.03,negative,impulsive,impulsive,-0.826|3.500|-0.692,2022.0,eq,1.53,0.103273609296,1.47,0.365240609076,
309,uw61250056,2017-02-14T04:36:12.820000Z,47.18,-122.203,earthquake,15.48,0.93,ml,0.039,0.78,0.62,CC,BH,OBSR,--,46.8997,-121.815,2382.0,"bucket1$309,:3,:15001",100,2017-02-14T04:35:22.820000Z,6306.0,5746.0,0.15,0.15,undecidable,emergent,emergent,-0.097|-5.874|-1.958,2017.0,eq,0.93,0.039,0.94,0.118,
310,uw61847987,2022-06-30T20:33:14.720000Z,47.214,-121.79,earthquake,11.4,1.86,ml,0.180886022866,1.17,0.77,CC,BH,PANH,--,46.859,-121.643,2086.0,"bucket1$310,:3,:15001",100,2022-06-30T20:32:24.720000Z,6241.0,5718.0,0.15,,undecidable,emergent,,25.094|25.190|16.615,2022.0,px,1.86,0.180886022866,1.8,0.309114432358,
311,uw10729438,2007-11-22T06:39:43.120000Z,45.38,-116.907,earthquake,8.803,0.0,md,0.07,0.0,0.193,TA,BH,G11A,--,45.3997,-116.268,1343.0,"bucket1$311,:3,:15001",100,2007-11-22T06:38:53.120000Z,6456.0,5856.0,0.08,0.08,undecidable,,,16.038|12.398|9.468,2007.0,eq,,,0.0,0.07,
312,uw61775316,2021-09-03T03:50:38.730000Z,46.096,-119.249,earthquake,13.13,1.03,ml,0.169,2.19,0.64,UW,HH,DDRF,--,46.4911,-119.06,233.0,"bucket1$312,:3,:15001",100,2021-09-03T03:49:48.730000Z,6489.0,5842.0,0.15,0.15,undecidable,emergent,emergent,18.752|15.225|11.806,2021.0,eq,1.03,0.16944478881,0.9,0.102794162978,
313,uw61339586,2017-10-10T02:23:10.880000Z,46.195,-122.174,earthquake,2.14,0.24,ml,0.243,0.61,0.58,CC,BH,VALT,--,46.2142,-122.189,1681.0,"bucket1$313,:3,:15001",100,2017-10-10T02:22:20.880000Z,5146.0,5076.0,0.06,0.06,undecidable,impulsive,impulsive,8.133|12.918|7.858,2017.0,eq,0.24,0.243,0.57,0.666,
314,uw61792651,2021-10-26T14:28:02.410000Z,47.257,-122.809,earthquake,51.21,1.98,ml,0.176,0.67,0.29,UW,HH,ANGUS,--,47.1008,-123.493,89.7,"bucket1$314,:3,:15001",100,2021-10-26T14:27:12.410000Z,7016.0,6194.0,0.15,0.15,undecidable,emergent,emergent,-2.662|-4.965|-4.235,2021.0,eq,1.98,0.176196138491,1.91,0.225850192506,
315,uw10745368,2008-05-15T01:00:08.330000Z,44.243,-118.221,earthquake,13.955,2.2,md,0.09,3.9,0.807,TA,BH,H08A,--,44.5191,-118.67,1373.0,"bucket1$315,:3,:15001",100,2008-05-15T00:59:18.330000Z,6512.0,5820.0,0.05,0.1,undecidable,,,13.101|7.507|3.702,2008.0,eq,,,2.2,0.09,
316,uw61366616,2018-02-03T23:18:41.750000Z,48.603,-123.02,earthquake,16.83,1.13,ml,0.089,1.34,0.61,CN,HH,SNB,--,48.7751,-123.172,402.0,"bucket1$316,:3,:15001",100,2018-02-03T23:17:51.750000Z,5788.0,5452.0,0.06,0.06,positive,impulsive,impulsive,-1.315|-2.859|-9.357,2018.0,eq,1.13,0.089,0.53,0.396,
317,uw10762288,2008-10-26T11:52:15.450000Z,47.418,-122.727,earthquake,25.679,2.3,md,0.06,0.42,0.41,UW,BH,LON,--,46.7506,-121.81,853.0,"bucket1$317,:3,:15001",100,2008-10-26T11:51:25.450000Z,7723.0,6573.0,0.05,0.02,positive,,,6.725|8.676|-0.495,2008.0,eq,,,2.3,0.06,
